Uncorrected accelerogram 20161122_001942_MKBS_20 GNS Science
Site MKBS      41 13 33S  174 41 53E     Basalt file:  20161122_002042_MKBS
Makara Bunker
Instrument Basalt_1682
Resolution: 24-bit   Instr Period: 0.0050 s   Damping: 0.700
Accelerogram 20161122_001942_MKBS_20                 Processed 2016 November 22
66 km south-east of Porangahau
2016 November 22         00:19:42 UT
Epicentre  40 40 25S 177 13 44E  Bearing N75E  Dist  222km  Depth   29km M  5.55
Number of points  27000    Duration 135.00 s
Raw readings in units of 1.00 mm/s/s  at intervals of 0.005 s
Data is unfiltered
Component S90E
Acceleration:  Peak      3.0 mm/s/s at  41.30 s     RMS     0.41 mm/s/s
Velocity record unevaluated
Displacement record unevaluated
    2016      11      22       0      19     420       0       0    2016      11
      40      40      25     177      13      44      29       0      22       0
      41      13      33     174      41      53      90      90      75     222
   27000       0       0   27000       0       0       0       0      20    2000
   200.0    0.70    0.00   0.000  0.0000   0.000   0.000   1.000     0.0    0.00
  41.226 174.698  40.674 177.229    5.55    0.00    0.00    0.00      0.      0.
  135.00    0.00    0.00  135.00  0.0050  0.0050      0.      0.      0.  9806.6
     3.0   41.30     0.4      0.      0.     0.0    0.00     0.0     0.0   0.000
    0.00    0.00    0.00    0.00   0.000    0.00    0.00    0.00    0.00   0.000
   0.000   0.000   0.000      0.      0.   0.000   0.000   0.000      0.      0.
     0.0    -0.0     0.0    -0.0    -0.0    -0.0    -0.0     0.0    -0.0    -0.0
     0.0    -0.0    -0.0    -0.0    -0.0     0.0    -0.0    -0.0     0.0    -0.0
     0.0    -0.0    -0.0     0.0    -0.1    -0.0     0.0    -0.0     0.0    -0.0
     0.0     0.0    -0.0     0.0    -0.0     0.0    -0.0    -0.0     0.0    -0.0
     0.0     0.0    -0.0    -0.0    -0.0     0.0    -0.0    -0.0     0.0     0.0
     0.0    -0.0     0.0    -0.0    -0.0    -0.0    -0.0     0.0     0.0    -0.0
     0.0    -0.0     0.0    -0.0    -0.0     0.0     0.0     0.0     0.0     0.0
    -0.1    -0.0    -0.0     0.0     0.0    -0.0     0.0    -0.0    -0.1    -0.0
    -0.0    -0.0    -0.0     0.0     0.0    -0.0    -0.0    -0.0    -0.0    -0.0
    -0.0     0.1     0.0     0.0     0.0    -0.0    -0.0    -0.0    -0.0     0.0
    -0.0     0.1    -0.0    -0.1    -0.0    -0.1    -0.0    -0.0    -0.0     0.1
    -0.0    -0.0    -0.0    -0.0    -0.0    -0.0     0.1     0.0     0.0     0.1
     0.0    -0.0    -0.1    -0.0     0.0     0.0    -0.0     0.0     0.0    -0.1
    -0.0    -0.0    -0.0     0.0     0.0     0.1    -0.0    -0.0    -0.0    -0.1
    -0.0     0.0     0.0     0.0     0.0     0.0    -0.0    -0.0    -0.0     0.0
     0.0     0.0    -0.0     0.0    -0.0    -0.0    -0.0    -0.0    -0.0     0.0
     0.0     0.0    -0.0     0.0    -0.0    -0.0    -0.0    -0.0     0.1    -0.0
    -0.0     0.0    -0.1    -0.0     0.0    -0.0     0.1     0.0     0.0     0.0
    -0.0    -0.0    -0.0    -0.0     0.0     0.0    -0.0     0.0    -0.0    -0.0
     0.0    -0.0     0.0     0.0    -0.0     0.0    -0.0    -0.0     0.0    -0.0
    -0.0     0.0    -0.0     0.0     0.0    -0.0     0.0    -0.0     0.0    -0.0
    -0.0     0.0     0.0     0.0    -0.0    -0.0    -0.1     0.0    -0.0    -0.0
     0.0    -0.0     0.0    -0.0    -0.0    -0.0    -0.1     0.0    -0.0     0.0
     0.0    -0.0     0.0    -0.0    -0.0    -0.0    -0.0     0.0     0.0     0.0
    -0.0    -0.0    -0.0    -0.0     0.0    -0.0     0.0     0.1     0.0    -0.0
    -0.0    -0.1    -0.0     0.0     0.0     0.0     0.0    -0.0    -0.0    -0.0
    -0.0     0.0     0.1     0.0     0.0     0.0    -0.0    -0.0    -0.0    -0.0
     0.0    -0.0     0.0     0.0    -0.0    -0.0    -0.0    -0.0     0.0    -0.0
     0.0     0.0    -0.0    -0.0    -0.1    -0.0    -0.0     0.1     0.1    -0.0
     0.0    -0.0    -0.0     0.0    -0.0     0.0     0.0     0.0     0.0     0.0
    -0.1    -0.1    -0.0    -0.0    -0.0     0.0     0.0     0.0    -0.0    -0.0
    -0.0    -0.1     0.0     0.0     0.0     0.0    -0.0     0.0    -0.1    -0.0
     0.0    -0.0     0.1     0.0     0.0     0.0    -0.0    -0.0    -0.0     0.0
     0.0    -0.0     0.0    -0.0    -0.0    -0.0    -0.0     0.0    -0.0     0.0
     0.0    -0.0     0.0    -0.1    -0.0     0.0    -0.0     0.0     0.0    -0.0
    -0.0    -0.0    -0.1     0.0    -0.0     0.0     0.0     0.0     0.0    -0.0
     0.0    -0.0    -0.0     0.0    -0.0     0.0     0.0    -0.0     0.0     0.0
    -0.0    -0.0     0.0    -0.0     0.0    -0.0    -0.0     0.0    -0.0    -0.0
     0.0    -0.0     0.0     0.0    -0.0     0.0    -0.0    -0.0    -0.0    -0.1
     0.0     0.0    -0.0     0.0    -0.0    -0.1    -0.0    -0.0     0.0     0.0
     0.0     0.0    -0.0     0.0    -0.0    -0.0    -0.0     0.0     0.1     0.1
     0.0     0.0    -0.0    -0.0    -0.0    -0.0     0.0     0.0     0.1    -0.0
     0.0    -0.0    -0.0    -0.0    -0.0     0.0     0.0     0.1     0.0    -0.0
     0.0    -0.1     0.0     0.0     0.0     0.1     0.0     0.0    -0.0    -0.0
    -0.0    -0.0     0.0    -0.0     0.0     0.0    -0.0     0.0    -0.0    -0.0
    -0.0     0.0     0.0     0.0     0.0    -0.0    -0.0    -0.0    -0.0     0.0
     0.0     0.0     0.1    -0.0    -0.0    -0.0    -0.0     0.0     0.0     0.1
     0.1     0.0     0.0    -0.1    -0.0    -0.0    -0.0     0.0     0.1     0.0
     0.0    -0.0    -0.0    -0.0    -0.0     0.0     0.0    -0.0    -0.0    -0.0
    -0.1    -0.0    -0.0    -0.0     0.1     0.0     0.0    -0.0    -0.0    -0.0
    -0.1     0.0     0.0     0.0     0.0     0.0    -0.0    -0.0    -0.0    -0.0
     0.0     0.0     0.0     0.0    -0.1     0.0    -0.0    -0.0     0.0     0.0
     0.1    -0.0    -0.0    -0.0    -0.0    -0.0    -0.0     0.0     0.0    -0.0
     0.0    -0.0    -0.1    -0.0    -0.0    -0.0     0.0    -0.0     0.0     0.0
    -0.1    -0.0     0.0    -0.0     0.0     0.0     0.0    -0.0     0.0    -0.0
    -0.1     0.0    -0.0    -0.0     0.0    -0.0    -0.0    -0.1    -0.0    -0.0
    -0.0     0.0     0.0     0.0     0.0     0.0     0.0    -0.0    -0.0     0.0
    -0.0     0.0     0.0     0.0     0.0    -0.0    -0.0    -0.0     0.0    -0.0
     0.0     0.1     0.0    -0.0     0.0    -0.0    -0.0     0.0    -0.0    -0.0
     0.0    -0.0     0.0    -0.0    -0.1     0.0    -0.0     0.0     0.0    -0.0
    -0.0     0.0    -0.0    -0.0    -0.0    -0.0     0.0     0.0     0.0     0.0
    -0.0    -0.0    -0.1    -0.0     0.0     0.0     0.0     0.0     0.1    -0.0
    -0.0    -0.0    -0.0     0.1     0.0     0.0     0.0    -0.0    -0.0    -0.1
    -0.0     0.0     0.0     0.0     0.0     0.0    -0.0    -0.0    -0.0    -0.0
     0.0     0.0     0.0     0.0    -0.0    -0.1    -0.0     0.0     0.0     0.1
     0.0     0.0     0.0    -0.0    -0.0    -0.1     0.0     0.0     0.1     0.1
    -0.0     0.0    -0.1    -0.0     0.0    -0.0     0.1     0.0     0.0     0.0
    -0.0    -0.0    -0.1    -0.0     0.0     0.0     0.0     0.0    -0.0    -0.0
    -0.0    -0.0     0.0     0.1     0.0     0.0     0.0    -0.0    -0.0    -0.0
     0.0     0.0     0.0     0.1     0.0    -0.0    -0.0    -0.1    -0.0    -0.0
    -0.0     0.0     0.0    -0.0    -0.0    -0.0    -0.0    -0.0     0.0     0.0
     0.0    -0.0    -0.0    -0.0    -0.0    -0.0     0.0    -0.0     0.0     0.0
    -0.0    -0.0    -0.0    -0.0    -0.0     0.0     0.0     0.0     0.0    -0.0
    -0.0    -0.0    -0.0     0.0     0.0     0.1     0.0    -0.0     0.0    -0.0
    -0.0    -0.0     0.0     0.0     0.0     0.0     0.0    -0.1    -0.1     0.0
    -0.0     0.0     0.0     0.1     0.0    -0.0     0.0    -0.0    -0.0     0.0
     0.0     0.0     0.0     0.0    -0.0     0.0    -0.0    -0.0     0.0     0.0
     0.0     0.0     0.0    -0.0    -0.0     0.0    -0.0    -0.0     0.0     0.0
     0.1    -0.0    -0.0     0.0    -0.0    -0.0    -0.0    -0.0     0.0     0.0
    -0.0     0.0    -0.0    -0.0    -0.0    -0.0     0.0     0.0    -0.0    -0.0
    -0.0    -0.1    -0.0     0.0     0.1     0.1     0.0     0.0    -0.1    -0.0
     0.0    -0.0     0.1     0.1     0.0     0.0     0.0    -0.0    -0.1    -0.0
     0.0     0.0     0.1     0.0     0.0    -0.0    -0.1    -0.0    -0.0     0.0
     0.0     0.0     0.0    -0.0    -0.0    -0.0    -0.0     0.0     0.0     0.0
     0.0    -0.0    -0.0    -0.0    -0.0     0.0     0.0     0.0     0.1     0.0
    -0.0    -0.1    -0.0    -0.0     0.0     0.0     0.0     0.0    -0.0    -0.0
    -0.0    -0.1     0.0     0.1     0.1     0.1     0.0    -0.0    -0.0    -0.1
    -0.0     0.0     0.0     0.1     0.0    -0.0     0.0    -0.1    -0.0     0.0
     0.0     0.0     0.0     0.0    -0.0    -0.1    -0.0    -0.0    -0.0     0.1
     0.0     0.0     0.0    -0.1    -0.0    -0.0     0.0     0.0     0.0     0.1
    -0.0     0.0     0.0    -0.1    -0.0     0.0     0.0     0.0     0.0     0.0
    -0.0    -0.0    -0.0     0.0     0.0     0.0     0.0     0.0    -0.0     0.0
    -0.0    -0.0     0.0    -0.0     0.0     0.0     0.0     0.0    -0.0     0.0
    -0.1    -0.0     0.1    -0.0     0.0    -0.0    -0.0    -0.0    -0.0     0.0
     0.0     0.0     0.0     0.0    -0.0    -0.0     0.0    -0.0     0.0     0.0
     0.0     0.0    -0.0     0.0    -0.0    -0.1    -0.0    -0.0     0.0     0.0
     0.0    -0.0    -0.0    -0.0    -0.1     0.0     0.0     0.0     0.1     0.0
    -0.0    -0.0    -0.0    -0.0     0.0     0.0    -0.0     0.0    -0.0    -0.0
    -0.0    -0.1     0.0     0.0     0.0     0.1     0.0    -0.0    -0.0    -0.0
    -0.0     0.0     0.0     0.1     0.0     0.0    -0.0    -0.1    -0.0    -0.0
     0.1     0.0     0.0     0.0    -0.0    -0.0    -0.1    -0.0     0.0     0.0
     0.1     0.0    -0.0    -0.0    -0.1    -0.0     0.0     0.0     0.1     0.0
     0.0     0.0    -0.1    -0.0    -0.0     0.0     0.0     0.0     0.0    -0.0
    -0.0    -0.1    -0.0     0.0    -0.0     0.1     0.0    -0.0    -0.0    -0.0
    -0.0    -0.0     0.0     0.0     0.0     0.0    -0.0    -0.0    -0.0    -0.0
    -0.0     0.0     0.1     0.0    -0.0    -0.0    -0.0    -0.0    -0.0     0.0
     0.0     0.0     0.0    -0.0    -0.0    -0.0    -0.0    -0.0     0.0     0.0
     0.0     0.0    -0.1    -0.0     0.0    -0.0     0.0     0.0     0.0    -0.0
    -0.0    -0.0    -0.0     0.0     0.0     0.0     0.0     0.0     0.0    -0.0
    -0.0     0.0    -0.0     0.0     0.0    -0.0     0.0     0.0    -0.0    -0.0
    -0.0     0.0     0.0    -0.0     0.0     0.0    -0.0     0.0    -0.0    -0.0
     0.0     0.0     0.0     0.0     0.0    -0.1    -0.0    -0.1    -0.0     0.1
    -0.0     0.0     0.0    -0.0    -0.0    -0.0    -0.0    -0.0     0.0     0.1
     0.0    -0.0    -0.0    -0.0    -0.0     0.0     0.0     0.0     0.0     0.1
    -0.0     0.0    -0.0    -0.0     0.0     0.0     0.0     0.0    -0.0    -0.0
    -0.1    -0.0    -0.1     0.0     0.0     0.0     0.0    -0.0    -0.0    -0.0
    -0.0    -0.0     0.1     0.1     0.0     0.0    -0.0    -0.0    -0.1     0.0
     0.0     0.0     0.1    -0.0    -0.0    -0.0    -0.1    -0.0     0.0     0.0
     0.0     0.0     0.0    -0.1    -0.1    -0.0    -0.0     0.0     0.0     0.0
     0.0    -0.0    -0.0    -0.0    -0.0     0.0     0.1     0.0     0.0    -0.0
    -0.1    -0.0    -0.0     0.0     0.1     0.0     0.0    -0.0    -0.0    -0.0
    -0.0     0.0     0.0     0.0     0.0    -0.0    -0.0    -0.1    -0.0    -0.0
     0.0     0.0     0.0     0.0    -0.0    -0.0    -0.0    -0.0     0.0     0.0
     0.0     0.1    -0.0    -0.1    -0.0    -0.0     0.0     0.0     0.0     0.0
    -0.0    -0.0    -0.0     0.0    -0.0     0.0     0.0     0.0     0.0    -0.0
    -0.0    -0.0     0.0     0.0     0.0     0.0     0.0     0.0    -0.0    -0.1
    -0.0    -0.0    -0.0     0.0    -0.0     0.0     0.0    -0.1     0.0     0.0
    -0.0     0.0     0.0     0.0     0.0    -0.0     0.0    -0.0    -0.0     0.0
    -0.0     0.0     0.0     0.0    -0.0    -0.0    -0.0    -0.0     0.0    -0.0
     0.0     0.0    -0.0    -0.0     0.0    -0.0    -0.0     0.0    -0.0     0.0
     0.0    -0.0     0.0    -0.1     0.0     0.0    -0.0     0.0     0.0     0.0
    -0.0    -0.0     0.0    -0.0    -0.0     0.0     0.0     0.0    -0.0    -0.0
    -0.0    -0.0     0.0     0.0     0.0     0.0    -0.0     0.0    -0.1    -0.0
     0.0     0.0     0.0     0.0    -0.0    -0.0    -0.0    -0.0    -0.0     0.0
     0.1     0.0    -0.0    -0.0    -0.0    -0.0    -0.0    -0.0     0.0     0.1
     0.0    -0.0     0.0    -0.0    -0.0     0.0     0.0     0.1     0.1    -0.0
    -0.0    -0.0    -0.0    -0.1     0.0     0.1     0.0    -0.0    -0.0    -0.1
    -0.1    -0.0    -0.0     0.0     0.0     0.0     0.0    -0.1    -0.0    -0.0
    -0.0     0.0     0.0     0.0    -0.0    -0.0    -0.0    -0.1    -0.0     0.0
     0.1     0.0     0.0    -0.0    -0.1    -0.0    -0.0    -0.0     0.0     0.0
     0.0    -0.0    -0.0    -0.0     0.0    -0.0     0.0     0.1    -0.0     0.0
    -0.0    -0.1    -0.0    -0.1     0.0     0.0    -0.0     0.0    -0.0    -0.0
    -0.0    -0.0     0.0    -0.0     0.0    -0.0    -0.0     0.0    -0.0     0.0
     0.0    -0.0     0.0     0.0     0.0    -0.0    -0.0     0.0    -0.0    -0.0
     0.0     0.0     0.0    -0.0    -0.0    -0.0    -0.0    -0.0     0.0     0.0
     0.0     0.0    -0.0     0.0     0.0    -0.0    -0.0     0.0     0.0     0.0
     0.0    -0.0     0.0     0.0    -0.0     0.0     0.0     0.0     0.0     0.0
    -0.0    -0.0    -0.0     0.0     0.0    -0.0     0.0     0.0    -0.0    -0.0
    -0.0    -0.0    -0.0     0.0    -0.0    -0.0     0.0     0.0    -0.0    -0.0
    -0.0    -0.0     0.0     0.0     0.0    -0.0     0.0     0.0    -0.0     0.0
     0.0     0.0     0.0    -0.0     0.0    -0.0    -0.0     0.0     0.0     0.0
     0.0     0.0    -0.0    -0.0    -0.0    -0.0     0.0     0.0    -0.0     0.0
     0.0    -0.0    -0.1    -0.0    -0.0     0.0     0.1     0.0     0.0    -0.0
    -0.1    -0.0    -0.0     0.0     0.0     0.0     0.0    -0.1    -0.0    -0.0
    -0.0     0.0     0.0     0.1     0.0    -0.0     0.0    -0.1    -0.0     0.0
     0.0     0.0     0.1     0.0    -0.0    -0.0    -0.1    -0.0     0.0     0.1
     0.0     0.0    -0.0    -0.1    -0.1    -0.0     0.0     0.0     0.0     0.1
     0.0    -0.0     0.0    -0.0    -0.0     0.0    -0.0     0.1     0.0    -0.0
     0.0    -0.1    -0.0    -0.0     0.0     0.1    -0.0     0.0    -0.0    -0.1
    -0.0    -0.0    -0.0     0.0     0.0     0.0    -0.0     0.0    -0.0    -0.0
     0.0     0.0     0.0     0.0    -0.0    -0.0    -0.0    -0.0    -0.0     0.0
     0.0     0.0     0.1     0.0    -0.0    -0.0    -0.0    -0.0     0.1     0.0
     0.0     0.0    -0.0     0.0    -0.0    -0.0    -0.0    -0.0     0.0     0.0
    -0.0    -0.1     0.0    -0.1    -0.0     0.0    -0.0     0.0     0.0    -0.0
    -0.0    -0.0     0.0    -0.0     0.0     0.0     0.0     0.0    -0.0    -0.0
    -0.0    -0.0     0.0     0.0     0.0     0.0    -0.0    -0.1     0.0     0.0
    -0.1     0.0     0.0    -0.0     0.0    -0.0    -0.0    -0.0    -0.0     0.1
     0.0     0.0     0.0    -0.0    -0.0    -0.0    -0.0    -0.0     0.0     0.1
     0.0     0.0    -0.0    -0.0    -0.0    -0.0     0.1     0.0     0.0     0.0
    -0.1     0.0    -0.1    -0.0     0.0     0.0     0.0    -0.0    -0.0    -0.0
    -0.0    -0.0    -0.0     0.0     0.0     0.0    -0.0    -0.0    -0.0    -0.0
    -0.0    -0.0     0.0     0.0    -0.0    -0.0    -0.0    -0.0    -0.1     0.0
     0.0     0.0     0.0     0.0    -0.0    -0.1    -0.0     0.0     0.0     0.0
     0.0     0.0    -0.0    -0.0    -0.0    -0.0     0.1     0.0     0.0     0.0
    -0.0    -0.0    -0.0    -0.0     0.0     0.0     0.0     0.0     0.0    -0.1
    -0.0    -0.0    -0.0     0.0     0.1     0.0     0.0     0.0    -0.1    -0.0
    -0.0    -0.0     0.0     0.0    -0.0    -0.0    -0.0    -0.1    -0.0    -0.0
    -0.0     0.0     0.0     0.0    -0.0    -0.0    -0.0     0.0    -0.0     0.0
     0.0    -0.0     0.0    -0.0     0.0    -0.0    -0.0     0.0    -0.0     0.0
    -0.0     0.0    -0.0    -0.0     0.0    -0.0     0.1    -0.0     0.0     0.0
    -0.1     0.0     0.0    -0.0     0.0     0.0    -0.0     0.0    -0.0    -0.0
    -0.0    -0.0    -0.0     0.0     0.1     0.0     0.0    -0.0    -0.1    -0.0
    -0.0    -0.0     0.0     0.0    -0.0    -0.0    -0.0    -0.1    -0.0     0.0
    -0.0     0.0     0.0    -0.0    -0.0    -0.0    -0.0     0.0     0.0     0.0
     0.1     0.0     0.0    -0.0    -0.0    -0.0    -0.0     0.0     0.0    -0.0
     0.0    -0.0    -0.0     0.0    -0.0     0.0     0.0     0.0     0.0    -0.0
    -0.0    -0.0    -0.0     0.0     0.1     0.0     0.0    -0.0    -0.0    -0.1
    -0.1     0.0     0.0     0.0     0.0     0.0    -0.0    -0.1    -0.0    -0.0
     0.0     0.0     0.0     0.0    -0.0    -0.0    -0.0    -0.1     0.0     0.0
     0.0     0.0    -0.0    -0.0    -0.0    -0.1     0.0     0.0     0.0     0.0
    -0.0    -0.0    -0.0    -0.0     0.0     0.0     0.1     0.0     0.0     0.0
    -0.1    -0.0    -0.0     0.0     0.0    -0.0     0.0     0.0    -0.0    -0.0
    -0.0    -0.0     0.0    -0.0     0.0     0.0    -0.0    -0.1    -0.0    -0.0
    -0.0     0.1     0.0    -0.0     0.0    -0.0    -0.0     0.0    -0.0     0.0
     0.0    -0.0    -0.0    -0.0    -0.0    -0.0    -0.0     0.0     0.0     0.0
     0.0    -0.0    -0.0     0.0    -0.0     0.0     0.0     0.0    -0.0     0.0
     0.0    -0.0    -0.0    -0.0     0.0    -0.0     0.0    -0.0    -0.0    -0.0
    -0.0    -0.0    -0.0     0.1     0.0    -0.0     0.0    -0.0    -0.0     0.0
     0.0     0.0     0.0     0.0    -0.0    -0.0    -0.0    -0.0    -0.0    -0.0
     0.0    -0.0    -0.0    -0.0    -0.0     0.0    -0.0    -0.0     0.0     0.0
     0.0    -0.0    -0.0    -0.0     0.0    -0.0    -0.1     0.0    -0.0     0.0
     0.0    -0.0     0.0    -0.0    -0.0     0.1    -0.0     0.1     0.0    -0.0
     0.0    -0.1    -0.0     0.0    -0.0     0.0     0.0     0.0    -0.0    -0.0
     0.0    -0.0    -0.0     0.0     0.1    -0.0    -0.0    -0.0    -0.1    -0.0
     0.0     0.0     0.0     0.0     0.0    -0.0    -0.0     0.0    -0.0     0.0
     0.0     0.0    -0.0    -0.0    -0.1    -0.0     0.0    -0.0     0.0     0.0
    -0.0     0.0    -0.0    -0.0     0.0     0.0     0.1     0.0    -0.0    -0.0
    -0.0    -0.0    -0.0    -0.0     0.0     0.0     0.0     0.0    -0.0    -0.1
    -0.0    -0.0     0.0     0.0     0.0     0.0     0.0    -0.0    -0.1     0.0
    -0.0     0.0     0.0    -0.0     0.0    -0.1    -0.0    -0.0    -0.0     0.1
     0.0     0.0     0.0    -0.1    -0.0    -0.0    -0.0     0.0     0.0     0.0
     0.0    -0.0    -0.0    -0.1    -0.0     0.0     0.0     0.0     0.0    -0.0
    -0.0    -0.0    -0.0    -0.0    -0.0     0.0    -0.0     0.0    -0.0    -0.0
     0.0    -0.0     0.0    -0.0     0.0     0.0    -0.0    -0.0    -0.0    -0.0
    -0.0     0.0    -0.0     0.0     0.0    -0.0     0.0    -0.0    -0.0    -0.0
    -0.0     0.0     0.0    -0.0     0.0    -0.0    -0.0    -0.0    -0.0     0.0
     0.0    -0.0     0.0    -0.0    -0.0     0.0    -0.1    -0.0     0.1    -0.0
     0.0    -0.0    -0.0    -0.0    -0.1     0.0    -0.0     0.0    -0.0     0.0
     0.0    -0.0     0.0    -0.0     0.0    -0.0     0.0    -0.0    -0.0    -0.0
    -0.0    -0.0     0.0    -0.0     0.0     0.0     0.0     0.0    -0.0    -0.0
    -0.0     0.0     0.0     0.0    -0.0    -0.0    -0.0    -0.0    -0.0    -0.0
     0.0     0.0    -0.0    -0.0    -0.0    -0.0    -0.0    -0.0     0.0     0.0
     0.0     0.0    -0.0    -0.0    -0.0    -0.0     0.0     0.0     0.0    -0.0
    -0.0    -0.0    -0.0    -0.0     0.0    -0.0     0.0     0.0    -0.0     0.0
    -0.1    -0.0     0.0     0.0     0.0     0.0     0.0     0.0    -0.1    -0.0
    -0.0     0.0     0.0    -0.0     0.0     0.0    -0.1    -0.0    -0.0     0.0
     0.0     0.0     0.0    -0.1     0.0    -0.0    -0.0     0.0    -0.0     0.0
