Uncorrected accelerogram 20161122_001942_MAVS_20 GNS Science
Site MAVS      41 12 39S  175 27 41E     Basalt file:  20161122_002028_MAVS
Martinborough Wines Vineyard
Instrument Basalt_564
Resolution: 24-bit   Instr Period: 0.0050 s   Damping: 0.700
Accelerogram 20161122_001942_MAVS_20                 Processed 2016 November 22
66 km south-east of Porangahau
2016 November 22         00:19:42 UT
Epicentre  40 40 25S 177 13 44E  Bearing N69E  Dist  160km  Depth   29km M  5.55
Number of points  34200    Duration 171.00 s
Raw readings in units of 1.00 mm/s/s  at intervals of 0.005 s
Data is unfiltered
Component N39W
Acceleration:  Peak      8.6 mm/s/s at 104.09 s     RMS     1.86 mm/s/s
Velocity record unevaluated
Displacement record unevaluated
    2016      11      22       0      19     420       0       0    2016      11
      40      40      25     177      13      44      29       0      22       0
      41      12      39     175      27      41     321     321      69     160
   34200       0       0   34200       0       0       0       0      19   48000
   200.0    0.70    0.00   0.000  0.0000   0.000   0.000   1.000     0.0    0.00
  41.211 175.461  40.674 177.229    5.55    0.00    0.00    0.00      0.      0.
  171.00    0.00    0.00  171.00  0.0050  0.0050      0.      0.      0.  9806.6
     8.6  104.09     1.9      0.      0.     0.0    0.00     0.0     0.0   0.000
    0.00    0.00    0.00    0.00   0.000    0.00    0.00    0.00    0.00   0.000
   0.000   0.000   0.000      0.      0.   0.000   0.000   0.000      0.      0.
     0.0    -0.1     0.0    -0.0     0.0     0.0    -0.1     0.0    -0.0    -0.0
     0.0    -0.0    -0.0    -0.0    -0.0    -0.0     0.0    -0.0    -0.0    -0.0
     0.0    -0.0    -0.0     0.1    -0.0    -0.1     0.0     0.1    -0.0    -0.0
    -0.0    -0.0     0.0    -0.0    -0.0    -0.0     0.0     0.0    -0.0     0.0
     0.0    -0.0    -0.0    -0.0     0.0    -0.0    -0.0    -0.0    -0.0     0.0
    -0.0     0.0     0.0     0.0     0.0    -0.0     0.0     0.1     0.0     0.0
     0.0     0.0     0.0    -0.0     0.0     0.0     0.0    -0.0    -0.0     0.0
    -0.0    -0.0     0.0     0.1    -0.0    -0.0     0.0     0.0     0.0     0.0
     0.0    -0.0    -0.0    -0.0    -0.0     0.0     0.0    -0.0    -0.0     0.0
    -0.0    -0.0     0.0     0.0    -0.0    -0.0    -0.1     0.0     0.0    -0.1
     0.0    -0.0     0.0     0.0    -0.0     0.0     0.0    -0.0    -0.0    -0.0
     0.0    -0.0    -0.1     0.0     0.0     0.0     0.0    -0.0     0.0    -0.0
    -0.1    -0.0     0.0     0.0     0.0     0.0     0.0     0.0    -0.0    -0.0
     0.0     0.0    -0.0     0.0     0.1    -0.0    -0.0     0.1    -0.0     0.1
     0.1    -0.1     0.0     0.0    -0.0     0.0    -0.0     0.0    -0.0    -0.0
     0.0     0.0    -0.0    -0.0     0.0    -0.0     0.0    -0.0    -0.0     0.0
    -0.0    -0.0     0.0    -0.0     0.1    -0.0    -0.0     0.0    -0.0    -0.0
     0.0     0.0     0.0    -0.0    -0.0     0.0    -0.0     0.0    -0.0     0.0
     0.1    -0.0    -0.0     0.0     0.0    -0.0     0.0     0.0    -0.0     0.0
    -0.0     0.0     0.0    -0.0    -0.0    -0.0     0.0    -0.0    -0.0     0.0
    -0.0     0.0    -0.0    -0.0     0.0     0.0    -0.0    -0.0     0.1     0.0
    -0.0     0.0     0.0     0.0    -0.0    -0.0     0.0    -0.0    -0.0    -0.0
    -0.0     0.0    -0.0    -0.1     0.0     0.0    -0.0     0.0     0.0     0.0
    -0.0    -0.1     0.0     0.1     0.0    -0.0    -0.0     0.0    -0.0    -0.0
    -0.0    -0.0     0.0    -0.0    -0.0     0.1     0.0    -0.0     0.0     0.1
     0.1    -0.0    -0.0     0.0     0.0     0.0    -0.0     0.0     0.0     0.0
    -0.0    -0.0     0.0    -0.0    -0.0     0.0    -0.0     0.0    -0.0     0.0
     0.0    -0.0     0.0     0.0     0.0     0.0    -0.0     0.0     0.0    -0.0
     0.0    -0.0     0.0    -0.0    -0.0    -0.0     0.0     0.0    -0.0    -0.0
     0.0     0.0    -0.0    -0.0     0.0    -0.0    -0.0     0.0     0.0    -0.0
     0.0    -0.0    -0.0    -0.0    -0.0    -0.0    -0.0     0.0    -0.0    -0.0
     0.0     0.0     0.0    -0.0    -0.0     0.0     0.0    -0.0     0.0     0.1
     0.0    -0.0    -0.0     0.0     0.0    -0.0     0.0     0.0     0.0    -0.0
    -0.0     0.0     0.0    -0.0     0.0     0.1    -0.0     0.0     0.0    -0.0
     0.1    -0.0    -0.0     0.0    -0.0     0.1     0.0    -0.0     0.0    -0.0
    -0.0     0.0     0.0     0.0    -0.0     0.0     0.0    -0.0     0.0    -0.0
     0.0     0.0    -0.1     0.1     0.1    -0.0    -0.0    -0.0     0.0    -0.0
    -0.1    -0.0     0.0     0.0    -0.0    -0.0     0.0     0.0    -0.0     0.0
    -0.0     0.0     0.0    -0.0     0.1     0.0    -0.0    -0.0    -0.0     0.1
    -0.0    -0.0     0.0    -0.0     0.0    -0.0     0.0     0.1    -0.0     0.0
    -0.0     0.1     0.0    -0.0     0.0     0.0     0.0    -0.0     0.0     0.1
    -0.0    -0.0    -0.0     0.0    -0.0    -0.0    -0.0     0.0     0.0    -0.0
    -0.0     0.0     0.0    -0.0    -0.0     0.0    -0.0     0.0    -0.1     0.0
     0.1    -0.1    -0.0     0.0     0.0     0.0    -0.0     0.0     0.0     0.0
    -0.0    -0.0     0.1    -0.0    -0.0     0.0     0.0     0.0    -0.0    -0.0
     0.0    -0.0    -0.0    -0.0    -0.0     0.0     0.0     0.0    -0.0    -0.1
    -0.0     0.0     0.1     0.0    -0.0    -0.1     0.0     0.0    -0.0    -0.1
    -0.0     0.0    -0.0     0.0     0.0    -0.0    -0.0    -0.0    -0.0    -0.0
     0.0    -0.0     0.0     0.1    -0.0    -0.0     0.0     0.0     0.0     0.0
    -0.0     0.0     0.0    -0.1     0.0     0.0    -0.0     0.0    -0.0     0.0
     0.0    -0.0    -0.0    -0.0    -0.0    -0.0    -0.0     0.0    -0.0    -0.0
     0.0    -0.0    -0.0    -0.0    -0.0     0.0     0.0    -0.0     0.0    -0.0
     0.0    -0.0    -0.1     0.0     0.0    -0.0     0.0     0.0     0.0     0.0
    -0.0    -0.0     0.0    -0.0    -0.0    -0.0     0.0     0.0    -0.1    -0.0
     0.0     0.0    -0.0    -0.0     0.0     0.0     0.0     0.0     0.1     0.0
    -0.0     0.0    -0.0    -0.0    -0.0    -0.0     0.0    -0.0     0.0    -0.0
    -0.0    -0.0     0.0    -0.0     0.0     0.0    -0.0     0.0    -0.0     0.0
     0.0    -0.0     0.0     0.0     0.0    -0.0    -0.0     0.0     0.0    -0.0
    -0.0     0.1    -0.0    -0.1     0.0    -0.0     0.0    -0.0    -0.1     0.1
    -0.0    -0.0    -0.0    -0.0     0.0    -0.0     0.0    -0.0     0.0     0.0
    -0.0     0.0     0.0    -0.0    -0.0     0.0     0.0    -0.1     0.0    -0.0
     0.0    -0.0    -0.0     0.0    -0.0     0.0    -0.0    -0.0     0.0    -0.0
    -0.0    -0.0    -0.0     0.0    -0.0    -0.0    -0.0     0.0    -0.0     0.0
     0.0     0.0    -0.0    -0.1     0.0     0.0    -0.0     0.0     0.0    -0.0
     0.0    -0.0    -0.0     0.0    -0.0     0.0    -0.0     0.0     0.0    -0.0
     0.0     0.0     0.0    -0.0     0.0    -0.0    -0.0    -0.0    -0.1     0.1
    -0.0    -0.0     0.0    -0.0     0.0    -0.0    -0.0     0.0    -0.0     0.0
    -0.0     0.0     0.1     0.0    -0.0     0.0    -0.0    -0.1     0.0    -0.0
     0.0     0.0    -0.0     0.0     0.0    -0.0    -0.0     0.0     0.1    -0.0
    -0.0     0.0    -0.0     0.0    -0.0    -0.0     0.0     0.0     0.0    -0.0
     0.0     0.0    -0.1    -0.0     0.0     0.0     0.0    -0.0     0.0     0.0
    -0.0    -0.0     0.0    -0.0    -0.0     0.0     0.1     0.0     0.0    -0.0
    -0.0     0.0    -0.0    -0.0     0.0    -0.0     0.0    -0.0    -0.0     0.0
    -0.1    -0.0     0.0     0.0     0.0    -0.0     0.0     0.0    -0.0    -0.0
     0.0     0.0    -0.0    -0.0    -0.0    -0.0     0.0    -0.0    -0.0     0.0
    -0.0    -0.0    -0.0    -0.0     0.1    -0.0    -0.0     0.1    -0.0    -0.0
    -0.0    -0.0     0.0    -0.0    -0.0     0.0     0.0     0.0    -0.0    -0.0
     0.1    -0.0    -0.0     0.0     0.0     0.0    -0.0     0.1     0.0    -0.0
     0.0    -0.0     0.0     0.0    -0.0    -0.0     0.0    -0.0    -0.0     0.0
    -0.0     0.0     0.0    -0.0     0.0    -0.0     0.0    -0.0    -0.0     0.1
    -0.0     0.0     0.0     0.0    -0.0    -0.1     0.0     0.0    -0.0    -0.0
     0.0     0.0    -0.0     0.0     0.0     0.0    -0.0    -0.0    -0.0     0.0
     0.0    -0.0     0.0     0.0    -0.0     0.0    -0.0     0.0     0.0    -0.0
    -0.0    -0.0     0.0    -0.0    -0.0     0.0     0.0     0.0    -0.0     0.0
     0.0    -0.0     0.0    -0.0     0.0     0.0    -0.0    -0.0     0.0    -0.0
    -0.0    -0.0    -0.0     0.0     0.0     0.0     0.0     0.0     0.0     0.0
     0.0     0.0     0.0    -0.0     0.0     0.0    -0.0     0.0     0.0    -0.0
    -0.0    -0.0    -0.0     0.0    -0.0     0.0     0.0    -0.0     0.0     0.0
     0.0     0.0     0.0     0.0     0.0     0.0    -0.0     0.0     0.0     0.0
     0.0    -0.0     0.0    -0.0     0.0    -0.0    -0.0     0.1    -0.0    -0.0
     0.0     0.0     0.0    -0.0     0.0     0.0    -0.0     0.0    -0.0     0.0
     0.0    -0.0     0.0     0.0    -0.0    -0.0    -0.0     0.0     0.0    -0.0
     0.0    -0.0    -0.0     0.0     0.0     0.0     0.0     0.0     0.0    -0.0
     0.0    -0.0     0.0    -0.0     0.0     0.0    -0.0     0.0     0.0    -0.0
     0.0    -0.0     0.0     0.0    -0.0    -0.0     0.0     0.0    -0.0    -0.0
     0.0    -0.0    -0.0     0.0     0.0    -0.0     0.0    -0.0     0.0     0.0
    -0.0     0.0     0.0     0.0     0.0    -0.0    -0.0     0.0    -0.0     0.0
     0.0    -0.0     0.0    -0.0    -0.0    -0.0    -0.0    -0.0    -0.0     0.0
    -0.0    -0.0     0.0    -0.0     0.0    -0.0     0.0     0.1    -0.0    -0.0
    -0.0     0.0     0.0    -0.0     0.0    -0.0     0.0     0.0    -0.0     0.0
     0.0    -0.0     0.0     0.0     0.0     0.0    -0.0     0.0    -0.0    -0.0
     0.0    -0.0     0.0    -0.0     0.0     0.0    -0.1     0.1    -0.0    -0.0
     0.1    -0.1    -0.0     0.0    -0.1     0.1    -0.0    -0.1     0.1    -0.0
    -0.1     0.0    -0.0     0.0     0.0    -0.1     0.0    -0.0    -0.0     0.1
    -0.1     0.0     0.1    -0.0     0.0     0.0    -0.0    -0.0     0.1    -0.0
     0.0     0.0    -0.1     0.1    -0.0    -0.0     0.0    -0.1    -0.0    -0.0
    -0.0     0.0    -0.0    -0.1     0.0     0.0    -0.0     0.0     0.0     0.0
     0.0    -0.0    -0.0     0.0    -0.0     0.0    -0.0     0.0    -0.0    -0.1
     0.0     0.0     0.0    -0.0    -0.1     0.0     0.0     0.0    -0.0     0.0
     0.0    -0.0     0.0    -0.0     0.0     0.0    -0.0     0.0     0.0     0.0
    -0.0    -0.0     0.0     0.0    -0.0     0.0     0.0     0.0    -0.0     0.0
     0.0    -0.0     0.0    -0.0     0.0     0.0    -0.0    -0.0     0.0    -0.0
    -0.0     0.0     0.0     0.0    -0.0    -0.0     0.1    -0.0     0.0     0.0
     0.0     0.0    -0.0     0.0     0.0     0.0     0.0    -0.0     0.0     0.0
    -0.0    -0.0     0.0     0.0    -0.0     0.0    -0.0     0.0     0.0    -0.0
    -0.0     0.0     0.0    -0.0    -0.0     0.0    -0.0    -0.0    -0.0    -0.0
    -0.0    -0.0    -0.0     0.0     0.0    -0.0    -0.0    -0.0     0.0     0.0
    -0.0     0.0     0.1    -0.0     0.0     0.0    -0.0     0.0    -0.0    -0.0
     0.0    -0.0     0.0    -0.0     0.0     0.0    -0.0     0.0     0.0     0.0
    -0.0     0.0     0.1     0.0    -0.0    -0.0     0.0     0.0    -0.0     0.0
    -0.0     0.0    -0.0    -0.0     0.0    -0.0    -0.0    -0.0     0.0     0.0
    -0.0    -0.0     0.0     0.0     0.0     0.0    -0.0     0.0     0.0    -0.0
     0.0     0.0    -0.0     0.0     0.0     0.0     0.0     0.0    -0.0     0.0
     0.0    -0.0     0.0     0.0     0.0    -0.0     0.0     0.0    -0.0    -0.0
    -0.0     0.0     0.0    -0.1    -0.0     0.1    -0.0    -0.0     0.0     0.0
     0.0    -0.0     0.0     0.0    -0.0    -0.0    -0.0     0.0     0.0    -0.0
    -0.0     0.0     0.0    -0.0     0.0    -0.0     0.0     0.0    -0.1     0.0
     0.1    -0.0     0.0     0.0    -0.0     0.0     0.0    -0.0     0.0     0.0
    -0.0    -0.0    -0.0     0.0    -0.0    -0.0     0.0    -0.0     0.0    -0.0
     0.0     0.0    -0.0    -0.0    -0.0     0.0    -0.0    -0.1     0.0     0.0
    -0.0    -0.0     0.0    -0.0     0.0    -0.0    -0.0     0.0     0.0    -0.0
     0.0     0.0    -0.0    -0.0    -0.0     0.0    -0.0    -0.0    -0.0    -0.0
    -0.0    -0.0     0.0     0.1    -0.0    -0.0     0.0     0.0     0.0    -0.1
    -0.0     0.0     0.0    -0.0     0.0     0.1     0.0    -0.0    -0.0    -0.0
    -0.0     0.0     0.0    -0.0     0.0     0.0    -0.1    -0.0     0.1    -0.0
     0.0     0.0     0.0     0.1    -0.1     0.0     0.0    -0.1     0.0     0.0
     0.0    -0.0    -0.0     0.0    -0.0     0.0    -0.0    -0.0     0.0    -0.0
    -0.0    -0.0     0.0    -0.0    -0.0     0.0    -0.0    -0.0     0.0    -0.0
     0.0    -0.0    -0.0    -0.0     0.0     0.1    -0.0     0.0     0.0    -0.0
     0.0     0.0    -0.0     0.1    -0.0    -0.1     0.0    -0.0    -0.0    -0.0
    -0.0     0.1    -0.0    -0.1     0.0     0.0    -0.0    -0.0     0.0    -0.0
    -0.0    -0.0    -0.0     0.0     0.0    -0.0    -0.1     0.0    -0.0    -0.1
     0.0    -0.0     0.0    -0.0    -0.0     0.0     0.0     0.0     0.0     0.0
     0.0     0.0     0.0    -0.0     0.0     0.0    -0.0     0.1    -0.0    -0.1
    -0.1    -0.0     0.0     0.0    -0.1     0.0     0.1    -0.0    -0.0     0.0
     0.0     0.0    -0.1    -0.0     0.0    -0.0     0.0    -0.0     0.0     0.0
    -0.0    -0.0    -0.0     0.0     0.0    -0.0     0.0     0.0     0.0    -0.0
    -0.0     0.0    -0.0    -0.0     0.0    -0.0    -0.0    -0.0    -0.0     0.0
    -0.0    -0.0     0.0     0.0     0.0    -0.0    -0.0     0.0     0.0    -0.0
    -0.0     0.0     0.0    -0.0    -0.0     0.0    -0.0    -0.0    -0.0     0.0
     0.0    -0.0    -0.0    -0.0     0.0    -0.0     0.0     0.0     0.0     0.0
     0.0     0.0     0.0     0.0    -0.0    -0.0     0.0    -0.0     0.0    -0.0
    -0.0    -0.0    -0.0     0.0    -0.0    -0.0    -0.0    -0.0     0.0    -0.0
     0.0    -0.0     0.0     0.0    -0.1     0.1    -0.0    -0.0     0.0    -0.1
     0.0     0.0    -0.1    -0.0     0.0     0.1     0.0    -0.0    -0.0    -0.0
     0.0     0.0     0.0     0.1    -0.0    -0.0     0.0     0.0     0.0    -0.0
     0.0     0.0    -0.0    -0.0    -0.0     0.0    -0.0    -0.0     0.0     0.0
    -0.0    -0.0     0.0    -0.0    -0.0    -0.0    -0.0     0.0    -0.0    -0.0
    -0.0     0.0    -0.0    -0.0    -0.0     0.0     0.0    -0.0    -0.0     0.0
     0.0     0.0    -0.1    -0.0     0.0    -0.0    -0.0    -0.0     0.0    -0.0
    -0.1     0.0     0.0    -0.0    -0.0     0.0     0.0     0.0     0.0    -0.0
     0.1     0.0    -0.0     0.0     0.0     0.0    -0.0    -0.0     0.0    -0.0
    -0.0    -0.0    -0.0     0.0    -0.0    -0.0     0.0     0.0    -0.0    -0.0
     0.0     0.0     0.0    -0.1     0.0     0.0    -0.0    -0.0    -0.0     0.0
     0.0    -0.0    -0.0    -0.0     0.0    -0.0    -0.0     0.0     0.0    -0.0
     0.0    -0.0     0.0    -0.0    -0.0     0.0     0.0    -0.0    -0.0     0.0
    -0.0    -0.1     0.0     0.0     0.0    -0.0    -0.0     0.0    -0.0    -0.0
     0.0    -0.0     0.0    -0.0    -0.1     0.0    -0.0     0.0    -0.0    -0.1
     0.1    -0.0    -0.1    -0.0    -0.0     0.0    -0.0    -0.0     0.0     0.0
     0.0    -0.0     0.0     0.0     0.0    -0.0     0.0     0.0    -0.0     0.0
    -0.0     0.0    -0.0    -0.0     0.0    -0.0     0.0    -0.0     0.1     0.0
    -0.0     0.0    -0.0     0.0    -0.0     0.0     0.0    -0.0     0.0    -0.0
    -0.0     0.0    -0.0    -0.0     0.0     0.0    -0.0    -0.0     0.0     0.0
     0.0     0.0    -0.0     0.0     0.0    -0.1    -0.0     0.0    -0.0    -0.0
    -0.0    -0.0     0.0    -0.0    -0.0     0.0     0.0    -0.0     0.0    -0.0
     0.0     0.0    -0.1     0.0     0.0    -0.0     0.0    -0.0     0.0    -0.0
    -0.0     0.0     0.0    -0.0    -0.0    -0.0     0.0     0.0    -0.0     0.0
    -0.0    -0.0     0.0    -0.0     0.0     0.0    -0.1     0.0     0.0    -0.0
    -0.0    -0.0     0.0     0.0    -0.0     0.0     0.0     0.0     0.0    -0.0
     0.0     0.0    -0.0     0.0    -0.0    -0.0    -0.0    -0.0     0.0     0.0
    -0.1     0.0     0.0    -0.0     0.1    -0.0    -0.0     0.0    -0.0    -0.0
     0.0    -0.0    -0.0    -0.0    -0.0     0.0    -0.0    -0.0    -0.0     0.0
    -0.0    -0.0     0.0    -0.0     0.0     0.0     0.0     0.0     0.0     0.0
     0.0     0.0     0.0    -0.0    -0.0     0.0     0.0    -0.0     0.0     0.0
     0.0     0.0    -0.0     0.0     0.0    -0.0    -0.0     0.0     0.0    -0.0
    -0.0    -0.0     0.0    -0.0    -0.0    -0.0    -0.0    -0.0    -0.0    -0.0
     0.0    -0.0    -0.0    -0.0    -0.0     0.0     0.0    -0.0     0.0     0.0
    -0.1    -0.0    -0.0    -0.0    -0.0    -0.1    -0.0     0.0    -0.1    -0.0
    -0.0     0.1     0.0    -0.0     0.1     0.0     0.0    -0.0     0.0     0.0
    -0.0     0.0    -0.0     0.1    -0.0    -0.1     0.0    -0.0     0.0    -0.0
    -0.0     0.0     0.0    -0.0    -0.0     0.0    -0.0     0.0    -0.0     0.0
    -0.0    -0.1    -0.0    -0.1     0.0    -0.0    -0.1     0.0    -0.0    -0.0
    -0.0    -0.0    -0.0    -0.0    -0.0     0.0     0.0     0.0    -0.0    -0.0
     0.0    -0.0    -0.0    -0.0     0.0    -0.0    -0.0     0.0    -0.0    -0.0
     0.0    -0.0     0.0     0.0    -0.0     0.0     0.0     0.0    -0.0    -0.0
     0.0    -0.0    -0.0    -0.0    -0.0     0.0    -0.1    -0.0     0.0    -0.0
     0.0    -0.0    -0.0     0.0    -0.0    -0.0     0.0    -0.0    -0.0    -0.0
     0.0     0.0    -0.0    -0.0     0.0     0.0     0.0     0.0     0.0     0.0
     0.0    -0.0     0.0     0.0    -0.0    -0.0    -0.0     0.0    -0.0    -0.0
    -0.0     0.0    -0.0    -0.0     0.0     0.0     0.0    -0.0    -0.0     0.0
    -0.0     0.0     0.0    -0.0     0.0    -0.0    -0.0     0.0    -0.0    -0.0
    -0.0    -0.0     0.0    -0.1    -0.0     0.0    -0.1     0.0    -0.0    -0.1
     0.1     0.0    -0.1     0.0     0.0     0.1    -0.0    -0.0     0.0     0.0
    -0.0    -0.0     0.0    -0.0    -0.0    -0.0     0.1     0.0    -0.0     0.0
     0.0     0.0    -0.0    -0.0     0.1     0.0    -0.0    -0.0    -0.0     0.0
    -0.0    -0.0     0.0     0.0    -0.0    -0.0     0.0     0.0     0.0    -0.0
     0.0     0.0     0.0     0.0    -0.0     0.0    -0.0    -0.0    -0.0    -0.0
     0.0    -0.0     0.0     0.0     0.0     0.0    -0.0     0.0     0.0    -0.0
     0.0     0.0     0.0    -0.0    -0.0     0.1    -0.0    -0.0    -0.0    -0.0
     0.0    -0.0     0.0    -0.0     0.0     0.0    -0.0     0.0    -0.0     0.0
    -0.0    -0.0     0.0    -0.0    -0.0    -0.0     0.1    -0.0    -0.1     0.0
     0.0    -0.1     0.1     0.1    -0.1     0.1     0.1     0.0     0.0    -0.1
     0.1     0.0    -0.0    -0.0    -0.0     0.0     0.1    -0.0    -0.0    -0.1
    -0.0     0.2    -0.0    -0.0     0.1    -0.0    -0.0    -0.1     0.1     0.1
     0.0    -0.0    -0.1    -0.0     0.0    -0.0     0.0     0.1    -0.1    -0.1
    -0.0     0.0     0.0    -0.0     0.0     0.0    -0.0    -0.1     0.0     0.1
    -0.0    -0.0    -0.0    -0.0     0.0    -0.0     0.0     0.0    -0.0    -0.0
    -0.1     0.0     0.0     0.0    -0.0    -0.0     0.0     0.0     0.0     0.0
     0.0    -0.0     0.0    -0.0    -0.0     0.1    -0.0     0.0     0.0    -0.1
     0.0     0.0     0.0     0.1    -0.0     0.0     0.1    -0.0     0.0    -0.0
     0.0    -0.0    -0.1     0.0    -0.0    -0.0    -0.0    -0.0    -0.0    -0.0
     0.0    -0.0     0.0     0.0    -0.0    -0.0     0.0    -0.0    -0.0    -0.0
     0.0     0.1     0.0    -0.0    -0.0     0.1     0.0    -0.2     0.1     0.2
    -0.0    -0.1    -0.1     0.0     0.1    -0.1     0.0     0.1     0.1    -0.1
    -0.1    -0.1    -0.1     0.1     0.1    -0.1    -0.0     0.1    -0.2    -0.1
     0.2     0.1    -0.1    -0.1    -0.0     0.0    -0.0     0.1     0.2    -0.1
    -0.2     0.0    -0.0    -0.0     0.1     0.0    -0.0    -0.0    -0.1     0.0
