Uncorrected accelerogram 20161122_001942_WEL_20 GNS Science
Site WEL       41 17 03S  174 46 05E     Quanterra file:  20161122_002043_WEL
Wellington
Instrument Quanterra_284
Resolution: 24-bit   Instr Period: 0.0050 s   Damping: 0.700
Accelerogram 20161122_001942_WEL_20                  Processed 2016 November 22
66 km south-east of Porangahau
2016 November 22         00:19:42 UT
Epicentre  40 40 25S 177 13 44E  Bearing N73E  Dist  218km  Depth   29km M  5.55
Number of points  26600    Duration 133.00 s
Raw readings in units of 1.00 mm/s/s  at intervals of 0.005 s
Data is unfiltered
Component S90E
Acceleration:  Peak      4.5 mm/s/s at  40.48 s     RMS     0.62 mm/s/s
Velocity record unevaluated
Displacement record unevaluated
    2016      11      22       0      19     420       0       0    2016      11
      40      40      25     177      13      44      29       0      22       0
      41      17       3     174      46       5      90      90      73     218
   26600       0       0   26600       0       0       0       0      20    2999
   200.0    0.70    0.00   0.000  0.0000   0.000   0.000   1.000     0.0    0.00
  41.284 174.768  40.674 177.229    5.55    0.00    0.00    0.00      0.      0.
  133.00    0.00    0.00  133.00  0.0050  0.0050      0.      0.      0.  9806.6
     4.5   40.48     0.6      0.      0.     0.0    0.00     0.0     0.0   0.000
    0.00    0.00    0.00    0.00   0.000    0.00    0.00    0.00    0.00   0.000
   0.000   0.000   0.000      0.      0.   0.000   0.000   0.000      0.      0.
     0.0     0.0    -0.0    -0.1    -0.0    -0.0    -0.0    -0.0     0.0     0.0
     0.0     0.0     0.0     0.0     0.0     0.0     0.0    -0.0     0.0     0.1
     0.0     0.0     0.1     0.0    -0.0     0.0     0.0    -0.0    -0.0    -0.0
    -0.0    -0.0    -0.0     0.0     0.1     0.0     0.0     0.0     0.0     0.0
     0.0     0.0     0.0     0.0    -0.0    -0.0     0.0     0.0     0.0     0.1
     0.1     0.0     0.0     0.0     0.0     0.0     0.0     0.0    -0.0    -0.0
    -0.0    -0.0    -0.0    -0.0    -0.0    -0.0     0.0     0.0    -0.1    -0.0
     0.0    -0.0    -0.0     0.0     0.0     0.0    -0.0     0.0     0.1     0.0
     0.0     0.0     0.0     0.0     0.0     0.0     0.0     0.0     0.0     0.0
     0.0     0.0     0.0    -0.0    -0.0     0.0     0.0    -0.0    -0.0    -0.0
    -0.0     0.0    -0.0    -0.0    -0.0     0.0     0.0    -0.0    -0.0     0.0
     0.0    -0.0    -0.0     0.0     0.0     0.0     0.0     0.0     0.0     0.0
     0.1     0.0     0.0     0.0     0.1     0.0     0.0     0.0     0.0    -0.0
     0.0     0.0     0.0     0.0     0.0     0.0    -0.0     0.0     0.1     0.0
    -0.0     0.0     0.1    -0.0    -0.0     0.0     0.0    -0.0    -0.0     0.0
     0.0    -0.0    -0.0    -0.0     0.0     0.1    -0.0     0.0     0.1     0.1
     0.0     0.1     0.1     0.0     0.0     0.0     0.0     0.0     0.0     0.0
     0.0     0.0     0.0     0.0     0.0     0.0    -0.0    -0.0     0.0     0.0
    -0.0    -0.0     0.0     0.0    -0.0     0.0     0.1     0.1     0.0     0.0
     0.1     0.1     0.0     0.1     0.0    -0.0     0.0     0.1    -0.0     0.0
     0.0    -0.0    -0.0    -0.0    -0.0     0.0    -0.0    -0.0     0.1     0.0
    -0.0     0.0     0.0     0.0     0.1     0.1     0.0     0.0     0.0     0.0
    -0.0    -0.0    -0.0    -0.0    -0.0     0.0     0.1     0.0     0.0     0.0
     0.0     0.0     0.0     0.1     0.0     0.0     0.1     0.1     0.0    -0.0
     0.0     0.0    -0.0    -0.0     0.0     0.0     0.1     0.0    -0.0    -0.0
     0.0    -0.0    -0.1    -0.0     0.1    -0.0    -0.0     0.0     0.0     0.0
     0.0     0.0     0.0    -0.0     0.0     0.0     0.1     0.0     0.0     0.0
     0.0     0.0    -0.0    -0.0     0.0    -0.0    -0.0     0.0     0.0    -0.1
    -0.0     0.0    -0.0    -0.0     0.0     0.1     0.0     0.0     0.1     0.1
    -0.0     0.0     0.0     0.0     0.0     0.0    -0.0     0.0     0.1     0.1
     0.1     0.0     0.1     0.1    -0.0    -0.0     0.1    -0.0    -0.1     0.0
     0.0    -0.0    -0.0     0.0     0.0     0.0     0.1     0.1     0.0    -0.0
    -0.0    -0.0    -0.0     0.0     0.0    -0.0     0.0    -0.0    -0.1    -0.0
    -0.0    -0.1    -0.1     0.0     0.1     0.0    -0.0     0.0     0.1     0.0
     0.0     0.0     0.1     0.1     0.0     0.1     0.1     0.0     0.0     0.0
     0.0    -0.0    -0.0    -0.0     0.0     0.1     0.0     0.0     0.1     0.0
     0.0     0.0    -0.0    -0.0     0.0     0.0     0.0    -0.0    -0.0    -0.0
    -0.0    -0.0     0.0     0.0    -0.0    -0.0     0.0     0.0     0.0     0.0
     0.0    -0.0     0.0     0.0    -0.0     0.0     0.0    -0.0     0.0     0.0
    -0.0    -0.0    -0.0     0.0     0.0     0.0     0.0     0.1     0.1     0.0
     0.0     0.0     0.1     0.0     0.0     0.0    -0.0    -0.0    -0.0     0.0
     0.0    -0.0     0.0     0.1     0.0     0.0     0.0     0.0     0.0    -0.0
    -0.0     0.0     0.0     0.0     0.1     0.1     0.1     0.0    -0.0     0.0
    -0.0    -0.0     0.0     0.1     0.0     0.0     0.0     0.0     0.1    -0.0
    -0.0    -0.0    -0.0     0.0     0.0     0.0     0.1     0.1     0.0     0.0
     0.0    -0.0    -0.0     0.0    -0.0    -0.0     0.0    -0.0    -0.0     0.0
     0.0     0.0     0.0     0.0     0.0     0.0     0.0     0.1     0.1     0.0
     0.0     0.0     0.0     0.0     0.1     0.1     0.0     0.1     0.1    -0.0
    -0.0     0.1     0.0    -0.1    -0.1    -0.0    -0.0    -0.0     0.0     0.0
    -0.0    -0.0    -0.0    -0.0     0.0     0.1     0.0     0.0     0.1     0.0
    -0.0    -0.0     0.0    -0.0    -0.0     0.0     0.0     0.0     0.0     0.0
     0.0    -0.0     0.0     0.0    -0.0     0.0     0.0     0.0     0.1     0.0
     0.0     0.0     0.0     0.0    -0.0    -0.0     0.0    -0.0    -0.1     0.0
    -0.0    -0.0     0.0    -0.0    -0.0    -0.0    -0.0     0.0     0.0     0.0
     0.1     0.0     0.0    -0.0    -0.0     0.0     0.0     0.0    -0.0     0.0
     0.0     0.0    -0.0     0.0     0.0    -0.0    -0.0     0.0     0.1     0.1
     0.0     0.0    -0.0    -0.0     0.0    -0.0    -0.1    -0.1    -0.0     0.0
     0.1     0.1     0.0     0.1    -0.0    -0.1    -0.0    -0.0    -0.1     0.0
     0.1     0.1     0.0    -0.0     0.0     0.0     0.0    -0.0    -0.0    -0.0
     0.0     0.0    -0.0     0.0     0.1     0.0     0.0     0.1     0.1    -0.0
    -0.0     0.0     0.0    -0.0     0.0     0.0     0.0    -0.0    -0.0    -0.0
    -0.0     0.0     0.0     0.0     0.0     0.0     0.0     0.0     0.1     0.0
    -0.0     0.0     0.0     0.0     0.1     0.1     0.0    -0.0    -0.0    -0.0
    -0.0    -0.0     0.0     0.0     0.0     0.1     0.0    -0.0     0.0     0.1
    -0.0    -0.0     0.1     0.0     0.0     0.1     0.1     0.0    -0.0     0.0
     0.1    -0.0    -0.0     0.1     0.0    -0.0     0.1     0.0    -0.0     0.0
     0.0     0.0    -0.0     0.0    -0.0    -0.0     0.0    -0.0    -0.0     0.0
     0.1     0.1     0.0     0.0     0.0    -0.0    -0.0     0.0     0.0     0.0
     0.0    -0.0     0.0     0.0     0.0     0.1     0.0    -0.0     0.0     0.0
     0.0     0.0     0.0     0.0     0.0     0.1     0.1     0.0    -0.0     0.0
     0.1     0.0    -0.0     0.0     0.0     0.0     0.1    -0.0    -0.0     0.0
     0.0    -0.0     0.0     0.0     0.0     0.0    -0.0     0.0     0.1     0.0
     0.0    -0.0    -0.0    -0.0    -0.0    -0.0    -0.0    -0.0    -0.0     0.0
    -0.0    -0.0     0.0     0.0     0.0     0.0     0.0     0.0     0.0    -0.0
    -0.1     0.0     0.0    -0.0     0.1     0.1     0.1     0.1     0.1    -0.0
     0.0     0.1     0.0     0.0     0.1     0.0    -0.0    -0.0     0.0    -0.1
    -0.1    -0.0    -0.0    -0.0     0.0     0.1     0.1    -0.0     0.0     0.1
     0.0    -0.0     0.0     0.0    -0.0     0.0     0.0    -0.0     0.0     0.1
     0.1     0.0     0.1     0.0    -0.0     0.0     0.0    -0.0    -0.0     0.0
     0.0     0.0     0.0     0.0     0.0     0.0     0.0     0.0     0.1     0.1
     0.0     0.1     0.1    -0.0     0.0     0.1     0.0    -0.0    -0.0    -0.0
    -0.1    -0.1    -0.0    -0.0     0.0     0.0    -0.0     0.0     0.1     0.0
     0.0    -0.0     0.0     0.0     0.0     0.1     0.1     0.1     0.0     0.0
     0.0    -0.0    -0.1    -0.0     0.0    -0.0    -0.0     0.0     0.1    -0.0
    -0.0     0.0     0.0    -0.0     0.0     0.1    -0.0     0.0     0.1     0.0
     0.0     0.1     0.0    -0.0    -0.0     0.0     0.0     0.0     0.0    -0.0
    -0.0     0.0    -0.0    -0.0     0.0    -0.0     0.0     0.0     0.1     0.1
     0.0     0.0     0.0     0.1     0.0    -0.0    -0.0     0.0     0.0    -0.0
    -0.0    -0.0    -0.0    -0.0     0.0    -0.0    -0.0     0.0    -0.0    -0.1
     0.1     0.0     0.0     0.1     0.1     0.0     0.1     0.1     0.0     0.0
    -0.0     0.0    -0.0    -0.0     0.1     0.0    -0.0     0.1     0.0    -0.0
     0.0     0.0    -0.1     0.0     0.0    -0.1     0.0     0.1     0.0     0.0
     0.0     0.0     0.1     0.0    -0.0     0.1     0.1     0.0     0.0     0.1
     0.0     0.1     0.0     0.0     0.0    -0.0    -0.0     0.0    -0.0     0.0
    -0.0    -0.1     0.0     0.1    -0.0     0.0     0.1     0.0    -0.0     0.0
     0.0     0.0     0.0    -0.0     0.0    -0.0    -0.0     0.1     0.0    -0.0
     0.0    -0.0     0.0     0.0     0.0     0.1     0.0     0.0     0.0    -0.0
    -0.0     0.0     0.0     0.0     0.1     0.0     0.0     0.0     0.0    -0.0
     0.0     0.0     0.0     0.0     0.0     0.0     0.1     0.0    -0.0     0.0
     0.0    -0.0    -0.0     0.1    -0.0    -0.0     0.0     0.1     0.0    -0.0
     0.0     0.1    -0.0    -0.0     0.1     0.0    -0.0     0.0     0.0    -0.0
     0.0     0.1     0.1     0.0     0.1     0.1     0.0     0.0     0.0     0.0
     0.0     0.1    -0.0    -0.1     0.0     0.1     0.0     0.0     0.1     0.1
     0.0     0.0     0.0     0.0    -0.0    -0.0    -0.0     0.0     0.1    -0.0
    -0.1     0.0     0.1     0.0     0.0     0.1     0.1    -0.0     0.0     0.0
     0.0     0.0     0.0     0.0     0.0    -0.0     0.0     0.0     0.0    -0.0
    -0.0    -0.0     0.0    -0.0    -0.1     0.0     0.1    -0.0    -0.0     0.1
     0.1     0.0     0.0     0.0     0.0    -0.0     0.0     0.1     0.0    -0.0
    -0.0    -0.0    -0.0     0.0    -0.0    -0.0     0.0    -0.0    -0.0     0.1
     0.0     0.0     0.1     0.0     0.0     0.1     0.0     0.0     0.0     0.1
     0.0    -0.0     0.0     0.0    -0.0    -0.0     0.1    -0.0    -0.1    -0.0
     0.0    -0.0    -0.1    -0.0     0.0     0.0     0.0     0.0     0.0    -0.0
    -0.0    -0.0    -0.0    -0.0     0.0    -0.0    -0.0    -0.0     0.0     0.0
     0.0     0.1     0.1     0.0     0.0     0.0    -0.0     0.0     0.1     0.0
    -0.0     0.0     0.0     0.0     0.0     0.1     0.0    -0.0    -0.0    -0.0
     0.0     0.0     0.0     0.0     0.1     0.0     0.0     0.0    -0.0    -0.0
    -0.0    -0.0    -0.0     0.0    -0.0    -0.0    -0.0    -0.0     0.1     0.0
     0.0     0.1     0.1     0.0     0.0     0.0     0.0    -0.0     0.0    -0.0
    -0.0     0.0     0.0     0.0     0.0     0.0     0.0     0.0     0.0     0.0
     0.0     0.0    -0.0     0.0     0.1     0.0    -0.0     0.0     0.1     0.0
    -0.0    -0.0     0.0    -0.0     0.0     0.1    -0.0    -0.0     0.0     0.1
     0.0     0.0     0.0     0.0     0.0    -0.0    -0.0     0.0    -0.0    -0.0
    -0.0     0.0     0.0     0.0     0.0     0.1     0.1     0.0     0.1     0.1
     0.0    -0.0    -0.1     0.0    -0.0    -0.0     0.0     0.1     0.1     0.1
     0.0     0.0     0.1     0.1     0.0     0.0     0.0    -0.0    -0.0     0.0
     0.0    -0.0    -0.0    -0.0    -0.0    -0.0    -0.0    -0.0     0.0     0.0
    -0.0     0.0     0.1    -0.0    -0.0     0.0     0.0    -0.0    -0.0     0.0
     0.0    -0.0    -0.0     0.0     0.0    -0.0     0.0     0.1     0.1     0.0
     0.0     0.0     0.0     0.0     0.0    -0.0     0.0     0.0    -0.0     0.0
     0.0     0.0     0.0     0.0     0.0     0.0     0.0     0.1     0.0    -0.0
    -0.0     0.0     0.0    -0.0     0.0     0.0    -0.0    -0.0    -0.0    -0.0
    -0.1    -0.1    -0.0    -0.0     0.0    -0.0     0.0     0.1     0.0     0.0
     0.1     0.0     0.0     0.0    -0.0    -0.0    -0.0     0.0     0.0     0.0
     0.0     0.0     0.0     0.0     0.0     0.0     0.0     0.0     0.0     0.0
    -0.0     0.0     0.0     0.0     0.0     0.1    -0.0    -0.0    -0.0     0.0
     0.0     0.0     0.0     0.1     0.1     0.0     0.0     0.0    -0.0    -0.0
    -0.0     0.0    -0.0    -0.0    -0.0     0.0     0.0    -0.0    -0.0     0.1
     0.1     0.0     0.0     0.1     0.0     0.0     0.1     0.0    -0.0     0.0
    -0.0    -0.1    -0.0    -0.0     0.0     0.1     0.1     0.0     0.0     0.0
     0.0     0.0     0.0     0.0    -0.0     0.0     0.1     0.0    -0.0     0.0
     0.0    -0.0    -0.0    -0.0     0.0     0.0    -0.0    -0.0    -0.0     0.0
     0.0     0.0    -0.0     0.0     0.0     0.0     0.0     0.0     0.0     0.0
    -0.0    -0.0     0.0     0.1     0.0     0.1     0.0     0.0     0.0     0.0
     0.0     0.0     0.0     0.0     0.0    -0.0    -0.0    -0.0    -0.0    -0.0
    -0.0    -0.0     0.0     0.0     0.0     0.0     0.0     0.0     0.0     0.0
     0.0    -0.0    -0.0     0.0    -0.0    -0.0     0.0     0.0    -0.0    -0.0
    -0.0     0.0     0.1     0.0     0.1     0.1     0.1     0.0     0.0     0.0
    -0.0    -0.0     0.0     0.0     0.0     0.0    -0.0    -0.0    -0.0    -0.0
    -0.0     0.0     0.1     0.1     0.1     0.1     0.1     0.1     0.0     0.0
     0.0    -0.0    -0.1    -0.0    -0.0    -0.0    -0.0     0.0     0.0     0.0
     0.0     0.0     0.0     0.0     0.0     0.0     0.0    -0.0    -0.0     0.0
    -0.0    -0.1     0.0     0.0    -0.0     0.0     0.0     0.1     0.1     0.0
     0.0     0.1     0.0    -0.0    -0.0    -0.0    -0.0    -0.1    -0.0     0.0
     0.0     0.1     0.0    -0.0     0.0     0.0     0.1     0.1    -0.0    -0.1
    -0.0     0.0     0.0    -0.1    -0.1    -0.0    -0.0    -0.0     0.1     0.0
     0.0     0.0     0.0     0.0     0.0    -0.0    -0.1    -0.0     0.0     0.1
     0.1     0.1     0.1     0.0    -0.0    -0.1    -0.1    -0.1    -0.1    -0.0
     0.0     0.0     0.0     0.1     0.1     0.0     0.0     0.0    -0.0    -0.0
    -0.0    -0.0     0.0     0.0    -0.0     0.0     0.0     0.0     0.1     0.0
     0.0     0.0    -0.0    -0.0     0.0     0.0     0.0     0.1     0.1    -0.0
     0.0     0.1     0.1    -0.0    -0.1    -0.1    -0.0    -0.1    -0.1    -0.0
     0.0     0.1     0.1     0.1     0.1     0.1     0.0    -0.0    -0.0    -0.0
    -0.1    -0.1    -0.1    -0.0     0.0     0.1     0.1     0.1     0.1     0.0
    -0.0    -0.1    -0.1    -0.0    -0.0    -0.0     0.0     0.1     0.1     0.1
     0.0     0.0     0.0    -0.0    -0.0     0.0     0.1     0.1     0.0     0.1
     0.1     0.0     0.1     0.0    -0.0    -0.0    -0.1    -0.0     0.0     0.0
     0.0     0.1     0.1     0.0     0.0     0.0    -0.0    -0.0     0.0     0.1
     0.0     0.0    -0.0     0.0     0.0    -0.0     0.0     0.0     0.0     0.0
     0.0     0.0     0.0    -0.1    -0.1    -0.0     0.0     0.0     0.0     0.1
     0.1    -0.0    -0.1     0.0     0.1     0.0    -0.0    -0.0    -0.0    -0.0
    -0.0     0.0     0.0     0.0     0.1     0.1     0.1     0.0     0.0     0.1
     0.0    -0.0    -0.0    -0.0    -0.1    -0.0     0.0     0.0     0.0     0.1
     0.1     0.1     0.0    -0.0    -0.0    -0.0    -0.0    -0.1    -0.0     0.0
     0.0     0.0     0.0     0.0     0.0    -0.0    -0.0     0.0     0.1     0.0
    -0.0     0.0     0.0     0.0     0.0     0.0     0.0     0.0    -0.0    -0.0
    -0.0    -0.0     0.0     0.0     0.1     0.1     0.0     0.0     0.0    -0.0
    -0.0     0.0     0.0    -0.0     0.0     0.0    -0.0    -0.0     0.0     0.0
     0.0     0.0     0.0     0.0     0.0     0.0     0.0     0.1     0.0     0.0
     0.0     0.0     0.0    -0.0    -0.0    -0.0    -0.0    -0.0    -0.0     0.0
     0.0     0.0     0.0     0.0     0.0     0.0     0.0    -0.0    -0.0    -0.0
    -0.0     0.0     0.0     0.0     0.1     0.1     0.0    -0.0    -0.0    -0.0
    -0.0     0.0     0.0     0.0     0.0     0.0     0.0     0.0     0.0     0.0
    -0.0    -0.0     0.0    -0.1    -0.0     0.0    -0.0    -0.0     0.0     0.0
     0.0     0.0    -0.0     0.0     0.1     0.0     0.0     0.0     0.0     0.0
     0.0     0.0     0.0     0.0    -0.0     0.0     0.0    -0.0    -0.0     0.0
     0.0     0.0    -0.0     0.0     0.1    -0.0    -0.0     0.0     0.0    -0.0
    -0.0    -0.0     0.0    -0.0     0.0     0.0     0.0     0.0     0.0     0.0
     0.0     0.0     0.0     0.0     0.0     0.0    -0.0    -0.1    -0.0    -0.0
     0.0     0.1     0.0     0.1     0.1     0.0     0.0     0.0     0.0     0.0
     0.1     0.1     0.0     0.0     0.0     0.0    -0.1     0.0     0.0    -0.0
     0.0     0.1     0.1     0.1     0.0     0.0     0.0     0.0    -0.0     0.0
     0.0    -0.0    -0.0    -0.0    -0.0     0.0     0.0     0.0     0.0     0.1
    -0.0    -0.0     0.0     0.0     0.0     0.0     0.0     0.0    -0.0     0.0
    -0.0    -0.0     0.0     0.0     0.0     0.0     0.0     0.0     0.0     0.0
     0.1     0.1     0.0     0.0     0.0     0.0     0.0    -0.0     0.0     0.0
     0.0     0.0    -0.0     0.0     0.1     0.0    -0.0     0.0     0.0     0.0
     0.0    -0.0     0.0     0.0    -0.0    -0.0     0.0    -0.0    -0.0     0.0
    -0.0    -0.0     0.0     0.0     0.0     0.0     0.0     0.0     0.0     0.0
     0.0     0.0     0.0     0.0     0.0     0.1     0.0    -0.0     0.0     0.0
     0.0    -0.0    -0.0     0.0     0.0    -0.0     0.0     0.0     0.1     0.0
     0.0     0.1     0.0    -0.1    -0.1    -0.0    -0.0     0.0     0.0     0.1
     0.1     0.1     0.0     0.0     0.0     0.0    -0.0     0.0     0.0    -0.0
     0.0     0.0     0.0    -0.0    -0.1    -0.0    -0.0    -0.1    -0.1     0.0
     0.0    -0.0     0.0     0.0     0.1     0.0     0.0     0.0    -0.0     0.0
    -0.0    -0.0     0.0     0.0    -0.0     0.0     0.1     0.0     0.0     0.0
     0.1     0.0     0.0     0.0     0.0     0.0     0.0     0.0     0.0    -0.0
    -0.0     0.0     0.0     0.0    -0.0     0.0     0.0     0.1     0.0     0.0
     0.0     0.0    -0.0    -0.0     0.1     0.0    -0.0     0.0    -0.0    -0.0
    -0.0    -0.0    -0.0     0.0    -0.0    -0.0     0.0    -0.0     0.0     0.0
     0.0     0.0     0.0    -0.0     0.0     0.0     0.0     0.0     0.1     0.0
    -0.0     0.0     0.0     0.0     0.0     0.0     0.0     0.0     0.0     0.0
     0.0     0.0     0.0     0.0     0.0     0.0    -0.0    -0.0     0.0     0.0
     0.0     0.0     0.1     0.1     0.1     0.1     0.0     0.0     0.0     0.0
     0.0    -0.0    -0.0     0.0     0.0    -0.0    -0.0    -0.0     0.0    -0.0
    -0.0     0.0     0.0    -0.0     0.0     0.0    -0.0     0.0    -0.0     0.0
     0.0    -0.0    -0.0     0.0     0.0     0.0    -0.0    -0.1    -0.0    -0.0
    -0.0    -0.0    -0.0     0.0    -0.0    -0.0    -0.0    -0.0    -0.0     0.0
    -0.0    -0.1    -0.0    -0.0    -0.0    -0.0     0.0     0.0     0.0     0.0
     0.0     0.1     0.1     0.1     0.0     0.0     0.0     0.0    -0.0     0.0
     0.1     0.0    -0.0     0.0     0.1     0.0    -0.0    -0.0     0.0    -0.0
    -0.0     0.0     0.0     0.0     0.0     0.0     0.0     0.0    -0.0     0.0
    -0.0    -0.1    -0.0    -0.0    -0.1    -0.0    -0.1    -0.0    -0.0    -0.0
    -0.0    -0.0     0.0     0.0    -0.0    -0.0    -0.0    -0.1    -0.0     0.0
    -0.0    -0.0     0.0     0.0     0.0    -0.0    -0.1    -0.1    -0.1    -0.1
    -0.1    -0.1    -0.0    -0.0    -0.0     0.0    -0.0    -0.0    -0.0    -0.0
    -0.0    -0.1    -0.0     0.0     0.1     0.0    -0.0    -0.0    -0.0    -0.1
    -0.1    -0.1    -0.1    -0.1    -0.1    -0.1    -0.1    -0.1    -0.1    -0.1
