Uncorrected accelerogram 20161122_001942_BWRS_20 GNS Science
Site BWRS      41 26 22S  173 54 18E     Basalt file:  20161122_002058_BWRS
Waikakaho Road
Instrument Basalt_492
Resolution: 24-bit   Instr Period: 0.0050 s   Damping: 0.700
Accelerogram 20161122_001942_BWRS_20                 Processed 2016 November 22
66 km south-east of Porangahau
2016 November 22         00:19:42 UT
Epicentre  40 40 25S 177 13 44E  Bearing N74E  Dist  292km  Depth   29km M  5.55
Number of points  21000    Duration 105.00 s
Raw readings in units of 1.00 mm/s/s  at intervals of 0.005 s
Data is unfiltered
Component S62W
Acceleration:  Peak      2.5 mm/s/s at  39.59 s     RMS     0.36 mm/s/s
Velocity record unevaluated
Displacement record unevaluated
    2016      11      22       0      19     420       0       0    2016      11
      40      40      25     177      13      44      29       0      22       0
      41      26      22     173      54      18     242     242      74     292
   21000       0       0   21000       0       0       0       0      20   18000
   200.0    0.70    0.00   0.000  0.0000   0.000   0.000   1.000     0.0    0.00
  41.440 173.905  40.674 177.229    5.55    0.00    0.00    0.00      0.      0.
  105.00    0.00    0.00  105.00  0.0050  0.0050      0.      0.      0.  9806.6
     2.5   39.59     0.4      0.      0.     0.0    0.00     0.0     0.0   0.000
    0.00    0.00    0.00    0.00   0.000    0.00    0.00    0.00    0.00   0.000
   0.000   0.000   0.000      0.      0.   0.000   0.000   0.000      0.      0.
     0.1     0.1     0.1    -0.1    -0.0     0.2     0.1    -0.1    -0.0     0.2
     0.1    -0.1    -0.0     0.1     0.2    -0.0    -0.0     0.1     0.2    -0.0
    -0.1     0.2     0.2    -0.0    -0.0     0.1     0.2    -0.0    -0.1     0.1
     0.2     0.0    -0.1     0.1     0.2     0.0    -0.1     0.1     0.2     0.1
    -0.1     0.0     0.2     0.1    -0.1    -0.0     0.2     0.1    -0.1    -0.0
     0.2     0.1    -0.1    -0.0     0.2     0.2    -0.1    -0.0     0.2     0.2
    -0.0    -0.1     0.1     0.2    -0.0    -0.1     0.1     0.2    -0.0    -0.1
     0.1     0.2     0.0    -0.1     0.1     0.2     0.0    -0.1     0.1     0.2
     0.1    -0.1     0.0     0.2     0.1    -0.1    -0.0     0.2     0.1    -0.2
     0.0     0.2     0.1    -0.1    -0.1     0.2     0.1    -0.1    -0.0     0.2
     0.1    -0.0    -0.1     0.1     0.2    -0.0    -0.1     0.1     0.2     0.0
    -0.1     0.1     0.2    -0.0    -0.1     0.1     0.2     0.0    -0.1     0.1
     0.2     0.1    -0.0    -0.0     0.2     0.1    -0.1     0.0     0.2     0.1
    -0.1    -0.1     0.2     0.1    -0.1    -0.0     0.1     0.1    -0.0    -0.0
     0.2     0.1    -0.0    -0.0     0.1     0.2    -0.0    -0.1     0.1     0.2
    -0.0    -0.1     0.1     0.2     0.0    -0.1     0.1     0.2     0.0    -0.1
     0.0     0.2     0.1    -0.1     0.0     0.2     0.1    -0.1    -0.0     0.2
     0.1    -0.1    -0.0     0.2     0.1    -0.1    -0.0     0.2     0.2    -0.1
    -0.0     0.2     0.2     0.0    -0.1     0.1     0.2     0.0    -0.1     0.1
     0.2     0.0    -0.1     0.1     0.2    -0.0    -0.1     0.1     0.2     0.1
    -0.1     0.0     0.2     0.0    -0.1     0.0     0.2     0.1    -0.1     0.0
     0.2     0.1    -0.1    -0.0     0.2     0.2    -0.1    -0.0     0.2     0.1
    -0.1    -0.0     0.2     0.2    -0.1    -0.1     0.2     0.2    -0.0    -0.1
     0.1     0.2     0.0    -0.1     0.1     0.2    -0.0    -0.1     0.0     0.3
     0.0    -0.2     0.1     0.2     0.0    -0.1     0.0     0.2     0.1    -0.1
     0.0     0.2     0.1    -0.1    -0.0     0.2     0.1    -0.1    -0.1     0.2
     0.1    -0.1    -0.0     0.1     0.2    -0.0    -0.1     0.2     0.2    -0.0
    -0.1     0.1     0.2     0.0    -0.1     0.1     0.2     0.0    -0.1     0.1
     0.2     0.1    -0.1     0.1     0.2     0.0    -0.1     0.1     0.2     0.1
    -0.1    -0.0     0.2     0.1    -0.1    -0.0     0.1     0.2    -0.1    -0.1
     0.2     0.1    -0.1    -0.0     0.2     0.1    -0.1    -0.0     0.1     0.1
    -0.0    -0.1     0.1     0.2     0.0    -0.1     0.1     0.2     0.0    -0.1
     0.1     0.2     0.0    -0.1     0.1     0.2     0.0    -0.0    -0.0     0.2
     0.1    -0.1     0.0     0.1     0.1    -0.1    -0.1     0.2     0.1    -0.1
    -0.0     0.2     0.2    -0.1    -0.1     0.2     0.2    -0.0    -0.1     0.1
     0.2     0.0    -0.1     0.1     0.2     0.0    -0.1     0.1     0.2     0.0
    -0.1     0.1     0.2     0.1    -0.1     0.1     0.2     0.1    -0.1     0.0
     0.2     0.1    -0.1     0.0     0.2     0.1    -0.1    -0.1     0.3     0.1
    -0.1     0.0     0.1     0.2    -0.1    -0.1     0.2     0.1     0.0    -0.1
     0.1     0.2    -0.0    -0.0     0.1     0.2    -0.0    -0.1     0.1     0.2
    -0.0    -0.1     0.1     0.2     0.1    -0.1     0.0     0.2     0.1    -0.1
     0.0     0.2     0.1    -0.1    -0.0     0.2     0.1    -0.1    -0.0     0.2
     0.1    -0.1    -0.0     0.2     0.2    -0.0    -0.1     0.2     0.2    -0.1
    -0.1     0.1     0.2    -0.1    -0.0     0.1     0.2     0.0    -0.1     0.1
     0.2     0.0    -0.1    -0.0     0.3     0.1    -0.1     0.1     0.2     0.1
    -0.1     0.0     0.2     0.1    -0.1     0.0     0.2     0.1    -0.1     0.0
     0.2     0.1    -0.0    -0.1     0.2     0.2    -0.1    -0.0     0.2     0.2
    -0.1    -0.0     0.2     0.2    -0.0    -0.1     0.1     0.2     0.0    -0.1
     0.1     0.2    -0.0    -0.1     0.1     0.2     0.1    -0.1     0.1     0.2
     0.0    -0.1     0.0     0.2     0.1    -0.0    -0.0     0.2     0.1    -0.1
    -0.0     0.2     0.2    -0.1    -0.0     0.2     0.1     0.0    -0.1     0.1
     0.2    -0.1    -0.0     0.1     0.2     0.0    -0.1     0.1     0.2    -0.0
    -0.1     0.1     0.2    -0.0    -0.1     0.1     0.2     0.0    -0.1     0.0
     0.2     0.1    -0.1    -0.0     0.2     0.1    -0.1    -0.0     0.2     0.1
    -0.1    -0.1     0.2     0.1    -0.1     0.0     0.1     0.2    -0.1    -0.1
     0.2     0.2     0.0    -0.1     0.1     0.2    -0.0    -0.1     0.1     0.2
    -0.0    -0.1     0.1     0.2     0.0    -0.1     0.1     0.2     0.0    -0.1
     0.0     0.2     0.1    -0.1    -0.0     0.2     0.1    -0.1     0.0     0.2
     0.1    -0.1    -0.1     0.2     0.2    -0.1    -0.0     0.2     0.1    -0.0
    -0.1     0.1     0.2    -0.0    -0.1     0.2     0.2    -0.1    -0.1     0.1
     0.2     0.0    -0.1     0.1     0.2     0.0    -0.1     0.1     0.2     0.1
    -0.1     0.0     0.2     0.1    -0.1     0.1     0.2     0.1    -0.1     0.0
     0.2     0.1    -0.1    -0.1     0.2     0.1    -0.1    -0.0     0.1     0.2
    -0.1    -0.1     0.2     0.2    -0.0    -0.1     0.2     0.1    -0.0    -0.0
     0.1     0.2     0.0    -0.1     0.1     0.2     0.1    -0.1     0.1     0.2
     0.1    -0.1     0.0     0.2     0.1    -0.1     0.0     0.2     0.1    -0.1
     0.0     0.1     0.1    -0.1    -0.0     0.2     0.1    -0.1    -0.0     0.1
     0.2    -0.0    -0.1     0.1     0.2    -0.0    -0.1     0.1     0.2    -0.0
    -0.1     0.1     0.2    -0.0    -0.1     0.1     0.2     0.1    -0.1     0.1
     0.2     0.1    -0.1     0.1     0.2     0.1    -0.1     0.0     0.2     0.1
    -0.1    -0.0     0.2     0.1    -0.1    -0.0     0.2     0.2    -0.0    -0.1
     0.1     0.2    -0.1    -0.1     0.2     0.2    -0.0    -0.1     0.1     0.2
    -0.0    -0.1     0.1     0.2    -0.0    -0.1     0.1     0.2     0.0    -0.1
     0.1     0.2     0.0    -0.1     0.0     0.2     0.1    -0.1    -0.0     0.2
     0.1    -0.1    -0.0     0.2     0.1    -0.1    -0.0     0.2     0.2    -0.1
    -0.0     0.2     0.2    -0.0    -0.1     0.1     0.2    -0.0    -0.1     0.1
     0.2    -0.0    -0.1     0.1     0.2     0.0    -0.1     0.1     0.2    -0.0
    -0.1     0.1     0.2     0.1    -0.1     0.0     0.2     0.0    -0.1    -0.0
     0.2     0.1    -0.1     0.0     0.2     0.1    -0.1    -0.0     0.2     0.1
    -0.0    -0.1     0.2     0.2    -0.0    -0.0     0.1     0.2    -0.0    -0.1
     0.1     0.2     0.0    -0.1     0.1     0.2    -0.0    -0.1     0.1     0.2
     0.0    -0.1     0.1     0.2     0.0    -0.1     0.0     0.2     0.2    -0.1
    -0.0     0.2     0.1    -0.1    -0.0     0.2     0.1    -0.1    -0.0     0.2
     0.1    -0.1    -0.0     0.1     0.2    -0.1    -0.1     0.2     0.2    -0.0
    -0.1     0.1     0.2     0.0    -0.1     0.1     0.2     0.0    -0.1     0.1
     0.2     0.1    -0.1    -0.0     0.2     0.1    -0.2     0.1     0.2     0.1
    -0.0    -0.0     0.2     0.1    -0.1    -0.0     0.2     0.2    -0.0    -0.0
     0.1     0.2    -0.1    -0.1     0.2     0.2     0.0    -0.1     0.1     0.2
    -0.1    -0.1     0.1     0.2     0.1    -0.1     0.1     0.2     0.1    -0.1
     0.0     0.2     0.1    -0.1     0.1     0.2     0.1    -0.1    -0.0     0.2
     0.1    -0.1    -0.0     0.2     0.2    -0.1    -0.0     0.2     0.2     0.0
    -0.1     0.2     0.2    -0.1    -0.1     0.1     0.2    -0.1    -0.1     0.1
     0.2    -0.1    -0.1     0.1     0.2     0.0    -0.1     0.1     0.2     0.1
    -0.1     0.1     0.3     0.1    -0.1     0.0     0.2     0.1    -0.1    -0.0
     0.2     0.1    -0.1    -0.0     0.2     0.2    -0.0    -0.1     0.2     0.2
    -0.1    -0.1     0.2     0.2    -0.0    -0.1     0.1     0.2    -0.1    -0.1
     0.1     0.2     0.0    -0.1     0.1     0.3     0.0    -0.1     0.1     0.3
     0.1    -0.1     0.1     0.2     0.1    -0.1    -0.0     0.3     0.1    -0.1
     0.0     0.1     0.1    -0.1    -0.0     0.2     0.2    -0.1    -0.1     0.2
     0.2    -0.1    -0.1     0.2     0.2    -0.0    -0.1     0.1     0.3    -0.0
    -0.1     0.2     0.2     0.1    -0.1     0.1     0.3     0.0    -0.1     0.0
     0.2     0.1    -0.1     0.1     0.2     0.1    -0.1    -0.0     0.2     0.1
    -0.1    -0.1     0.2     0.1    -0.1    -0.1     0.1     0.2    -0.1    -0.1
     0.2     0.2    -0.0    -0.1     0.2     0.2    -0.0    -0.0     0.1     0.2
    -0.0    -0.1     0.1     0.2     0.0    -0.1     0.1     0.2     0.0    -0.1
     0.0     0.2     0.1    -0.1    -0.0     0.2     0.1    -0.2     0.0     0.2
     0.2    -0.1    -0.0     0.2     0.1    -0.1    -0.1     0.2     0.2    -0.1
    -0.1     0.1     0.2    -0.1    -0.1     0.2     0.2     0.0    -0.1     0.2
     0.3     0.0    -0.1     0.1     0.2     0.1    -0.1     0.1     0.3     0.0
    -0.1    -0.0     0.2     0.1    -0.2    -0.0     0.2     0.1    -0.1    -0.1
     0.2     0.2    -0.1    -0.0     0.2     0.2    -0.1    -0.0     0.2     0.2
    -0.0    -0.1     0.1     0.2    -0.0    -0.1     0.1     0.2    -0.0    -0.1
     0.2     0.3    -0.0    -0.0     0.1     0.2     0.1    -0.1     0.1     0.2
     0.1    -0.1    -0.0     0.2     0.1    -0.2    -0.0     0.2     0.1    -0.1
    -0.1     0.2     0.1    -0.1    -0.0     0.2     0.2    -0.0    -0.0     0.2
     0.2     0.0    -0.1     0.2     0.2    -0.0    -0.1     0.1     0.2    -0.0
    -0.1     0.1     0.2     0.0    -0.1     0.1     0.3     0.1    -0.0     0.1
     0.2     0.1    -0.1     0.0     0.2     0.1    -0.1    -0.0     0.2     0.1
    -0.1    -0.0     0.1     0.1    -0.0    -0.1     0.2     0.2    -0.0    -0.0
     0.2     0.2     0.0    -0.1     0.2     0.2    -0.0    -0.1     0.1     0.2
     0.0    -0.1     0.1     0.2     0.1    -0.1     0.0     0.3     0.1    -0.1
     0.1     0.2     0.1    -0.1     0.0     0.2     0.1    -0.1    -0.0     0.2
     0.1    -0.1    -0.1     0.1     0.2    -0.1    -0.1     0.2     0.2    -0.0
    -0.1     0.2     0.2    -0.0    -0.1     0.1     0.2    -0.0    -0.1     0.1
     0.2     0.0    -0.2     0.1     0.2     0.0    -0.1    -0.0     0.2     0.1
    -0.1     0.1     0.2     0.1    -0.1    -0.0     0.2     0.1    -0.1    -0.0
     0.2     0.2    -0.1    -0.1     0.2     0.2    -0.1    -0.1     0.2     0.2
    -0.0    -0.1     0.1     0.2    -0.0    -0.1     0.1     0.2     0.1    -0.1
     0.1     0.2     0.0    -0.2     0.1     0.2     0.0    -0.1     0.0     0.2
     0.1    -0.1    -0.0     0.2     0.1    -0.1     0.0     0.2     0.2    -0.1
     0.0     0.2     0.2     0.0    -0.1     0.2     0.2    -0.1    -0.1     0.1
     0.2    -0.1    -0.2     0.1     0.1    -0.0    -0.1     0.1     0.2     0.0
    -0.1     0.1     0.2     0.1    -0.1     0.1     0.2     0.1    -0.1     0.0
     0.2     0.1    -0.1    -0.0     0.2     0.1    -0.1     0.0     0.2     0.2
    -0.0    -0.0     0.2     0.2    -0.0    -0.1     0.1     0.2    -0.1    -0.2
     0.0     0.2    -0.1    -0.2     0.1     0.1     0.0    -0.1     0.1     0.2
     0.0    -0.1     0.1     0.2     0.1    -0.1     0.1     0.2     0.1    -0.1
    -0.0     0.2     0.1    -0.1    -0.1     0.1     0.1    -0.1    -0.1     0.2
     0.2     0.0    -0.1     0.2     0.2    -0.1    -0.1     0.1     0.2    -0.1
    -0.1     0.1     0.2    -0.1    -0.1     0.1     0.2     0.0    -0.1     0.1
     0.2     0.1    -0.1    -0.0     0.3     0.1    -0.1     0.1     0.2     0.1
    -0.1    -0.0     0.2     0.0    -0.1    -0.1     0.1     0.1    -0.2    -0.1
     0.1     0.1    -0.1    -0.1     0.2     0.1    -0.1    -0.1     0.1     0.1
    -0.1    -0.1     0.1     0.2    -0.1    -0.1     0.1     0.2     0.1    -0.1
     0.2     0.2     0.1    -0.1     0.1     0.2     0.0    -0.1    -0.0     0.1
     0.1    -0.1    -0.1     0.1     0.1    -0.1    -0.1     0.1     0.1    -0.1
    -0.1     0.2     0.2    -0.1    -0.1     0.2     0.1    -0.1    -0.1     0.1
     0.1    -0.1    -0.1     0.1     0.2     0.1    -0.0     0.1     0.3     0.1
    -0.0     0.1     0.2     0.1    -0.1     0.0     0.1     0.0    -0.2    -0.1
     0.1     0.0    -0.1    -0.1     0.1     0.1    -0.1    -0.0     0.1     0.1
    -0.0    -0.1     0.1     0.2    -0.0    -0.1     0.1     0.2    -0.0    -0.1
     0.1     0.2    -0.0    -0.1     0.1     0.2    -0.0    -0.1     0.1     0.2
     0.1    -0.1     0.1     0.2     0.1    -0.1    -0.0     0.2     0.1    -0.1
     0.0     0.2     0.1    -0.1    -0.1     0.1     0.1    -0.1    -0.0     0.2
     0.2    -0.1    -0.1     0.1     0.1    -0.1    -0.2     0.1     0.1    -0.1
    -0.1     0.0     0.1    -0.0    -0.1     0.1     0.3     0.1    -0.0     0.2
     0.3     0.1    -0.0     0.1     0.3     0.1    -0.1     0.0     0.2     0.1
    -0.1    -0.1     0.1    -0.0    -0.2    -0.1     0.1     0.1    -0.1    -0.0
     0.1     0.1    -0.0    -0.1     0.2     0.2    -0.0     0.0     0.2     0.2
    -0.0    -0.1     0.0     0.1    -0.1    -0.2     0.0     0.2     0.1    -0.1
     0.1     0.3     0.1    -0.0     0.1     0.2     0.1    -0.1    -0.0     0.1
     0.0    -0.2    -0.1     0.1     0.1    -0.1    -0.1     0.2     0.1    -0.1
    -0.1     0.1     0.2     0.0    -0.0     0.2     0.3     0.1    -0.0     0.2
     0.2    -0.0    -0.1     0.1     0.1    -0.0    -0.2    -0.0     0.1    -0.0
    -0.1     0.0     0.2     0.1    -0.1     0.1     0.2     0.1    -0.1    -0.1
     0.2     0.0    -0.2    -0.1     0.1     0.1    -0.1    -0.0     0.2     0.1
    -0.0     0.0     0.2     0.2    -0.0    -0.1     0.1     0.1    -0.1    -0.1
     0.0     0.2    -0.0    -0.1     0.1     0.1    -0.0    -0.1    -0.0     0.1
    -0.0    -0.1     0.0     0.2     0.1    -0.1     0.0     0.2     0.1    -0.0
     0.1     0.2     0.2    -0.1     0.0     0.1     0.1    -0.1    -0.2     0.1
     0.1    -0.1    -0.1     0.0     0.2    -0.0    -0.1     0.1     0.2     0.0
    -0.1     0.1     0.2    -0.1    -0.2     0.0     0.1    -0.0    -0.2     0.1
     0.2     0.1    -0.0     0.0     0.3     0.1    -0.1     0.1     0.2     0.2
    -0.0     0.0     0.3     0.1    -0.0     0.0     0.2     0.1    -0.0    -0.1
     0.1     0.2    -0.1    -0.1     0.1     0.1    -0.1    -0.2     0.1     0.1
    -0.1    -0.1     0.1     0.2     0.1    -0.1     0.1     0.2     0.1    -0.1
     0.1     0.3     0.1    -0.0     0.1     0.2     0.0    -0.2    -0.1     0.1
    -0.0    -0.2    -0.1     0.1    -0.0    -0.2    -0.1     0.1     0.1     0.0
    -0.0     0.1     0.2    -0.0    -0.1     0.1     0.1    -0.0    -0.1     0.1
     0.2    -0.0    -0.1     0.1     0.2     0.0    -0.1     0.0     0.2     0.1
    -0.1     0.1     0.3     0.1    -0.1     0.1     0.2     0.0    -0.2    -0.1
     0.1    -0.1    -0.2    -0.2     0.0     0.0    -0.2    -0.1     0.1     0.1
    -0.1    -0.0     0.2     0.2     0.0    -0.0     0.2     0.2     0.0    -0.1
     0.1     0.2     0.0    -0.2     0.1     0.2     0.0    -0.1     0.1     0.2
     0.0    -0.0     0.0     0.2     0.1    -0.1     0.0     0.2     0.1    -0.1
    -0.1     0.1     0.0    -0.2    -0.1     0.1     0.0    -0.1    -0.1     0.1
     0.1    -0.0    -0.0     0.3     0.3     0.0     0.0     0.2     0.2     0.0
    -0.0     0.2     0.2     0.0    -0.1     0.1     0.2    -0.0    -0.1    -0.0
     0.2     0.1    -0.1     0.0     0.3     0.1    -0.1     0.0     0.2     0.1
    -0.1    -0.1     0.1    -0.0    -0.3    -0.2    -0.0    -0.0    -0.2    -0.2
     0.1     0.1     0.0     0.0     0.2     0.3     0.1     0.0     0.2     0.2
     0.0    -0.1     0.1     0.2    -0.0    -0.1     0.0     0.2     0.0    -0.1
     0.0     0.2    -0.0    -0.2    -0.1     0.1    -0.0    -0.1    -0.0     0.2
     0.1    -0.1     0.0     0.3     0.2    -0.0     0.0     0.2     0.1    -0.0
    -0.1     0.1     0.2    -0.1    -0.1     0.1     0.2     0.0    -0.1     0.1
     0.2    -0.0    -0.1     0.1     0.1     0.0    -0.1     0.0     0.2     0.0
    -0.1     0.1     0.2     0.1    -0.1     0.0     0.1    -0.0    -0.1    -0.1
     0.1     0.0    -0.1     0.0     0.2     0.2     0.1     0.0     0.2     0.2
    -0.0    -0.1     0.1     0.1    -0.1    -0.2     0.1     0.1    -0.1    -0.1
     0.1     0.1    -0.0    -0.2    -0.0     0.2    -0.0    -0.2     0.0     0.2
     0.1     0.0     0.1     0.3     0.2    -0.1     0.1     0.2     0.0    -0.2
    -0.2     0.0    -0.0    -0.2    -0.1     0.1     0.2     0.1     0.1     0.4
     0.4     0.1     0.1     0.3     0.3     0.0    -0.1     0.0     0.1    -0.1
    -0.3    -0.1     0.1    -0.1    -0.2    -0.0     0.1    -0.1    -0.2    -0.0
     0.1     0.0    -0.1    -0.0     0.2     0.2    -0.0     0.1     0.3     0.3
     0.0     0.1     0.3     0.1    -0.1    -0.0     0.1     0.2    -0.1    -0.1
     0.2     0.2     0.0    -0.1     0.1     0.2    -0.1    -0.2     0.1     0.1
    -0.1    -0.2    -0.0     0.1    -0.2    -0.2    -0.1     0.1    -0.0    -0.2
     0.0     0.2     0.1    -0.1     0.1     0.3     0.2     0.0     0.2     0.3
     0.2     0.0     0.0     0.2     0.2    -0.0     0.1     0.3     0.2    -0.0
    -0.1     0.1     0.2    -0.1    -0.1     0.1     0.1    -0.0    -0.2     0.0
     0.1    -0.1    -0.2     0.0     0.1    -0.0    -0.2    -0.0     0.2     0.1
    -0.1     0.0     0.2     0.1    -0.1    -0.0     0.2     0.0    -0.1    -0.1
     0.1     0.2    -0.1     0.0     0.2     0.2     0.0     0.0     0.2     0.2
     0.0    -0.1     0.2     0.1    -0.1    -0.1     0.1     0.2    -0.0    -0.1
     0.0     0.2    -0.1    -0.2    -0.0     0.1     0.0    -0.2     0.0     0.2
     0.0    -0.1     0.0     0.3     0.2    -0.1     0.0     0.3     0.2    -0.1
    -0.0     0.2     0.1    -0.0    -0.1     0.1     0.2    -0.0    -0.0     0.2
     0.2    -0.0    -0.1     0.2     0.2     0.0    -0.1     0.1     0.2    -0.0
    -0.1     0.0     0.3     0.1    -0.1     0.2     0.3     0.1    -0.1     0.0
     0.2     0.0    -0.2    -0.1     0.1    -0.0    -0.2    -0.1     0.1     0.1
    -0.1    -0.1     0.2     0.1    -0.2    -0.2     0.1     0.1    -0.1    -0.1
     0.1     0.2     0.0    -0.1     0.1     0.3     0.1    -0.0     0.2     0.3
     0.1    -0.1     0.1     0.2    -0.0    -0.1     0.0     0.2     0.0    -0.1
    -0.0     0.2     0.1    -0.1     0.0     0.3     0.1    -0.0    -0.0     0.2
     0.2    -0.0    -0.0     0.2     0.2    -0.1    -0.1     0.1     0.1    -0.1
    -0.2     0.1     0.1    -0.1    -0.2     0.0     0.2     0.0    -0.0     0.1
