Uncorrected accelerogram 20161122_001942_WRCS_20 GNS Science
Site WRCS      40 57 01S  175 38 52E     Basalt file:  20161122_002016_WRCS
Masterton Wairarapa College
Instrument Basalt_2157
Resolution: 24-bit   Instr Period: 0.0050 s   Damping: 0.700
Accelerogram 20161122_001942_WRCS_20                 Processed 2016 November 22
66 km south-east of Porangahau
2016 November 22         00:19:42 UT
Epicentre  40 40 25S 177 13 44E  Bearing N78E  Dist  137km  Depth   29km M  5.55
Number of points  37800    Duration 189.00 s
Raw readings in units of 1.00 mm/s/s  at intervals of 0.005 s
Data is unfiltered
Component S22W
Acceleration:  Peak     12.0 mm/s/s at  99.88 s     RMS     2.18 mm/s/s
Velocity record unevaluated
Displacement record unevaluated
    2016      11      22       0      19     420       0       0    2016      11
      40      40      25     177      13      44      29       0      22       0
      40      57       1     175      38      52     202     202      78     137
   37800       0       0   37800       0       0       0       0      19   36000
   200.0    0.70    0.00   0.000  0.0000   0.000   0.000   1.000     0.0    0.00
  40.950 175.648  40.674 177.229    5.55    0.00    0.00    0.00      0.      0.
  189.00    0.00    0.00  189.00  0.0050  0.0050      0.      0.      0.  9806.6
    12.0   99.88     2.2      0.      0.     0.0    0.00     0.0     0.0   0.000
    0.00    0.00    0.00    0.00   0.000    0.00    0.00    0.00    0.00   0.000
   0.000   0.000   0.000      0.      0.   0.000   0.000   0.000      0.      0.
    -0.1    -0.0     0.1    -0.0    -0.0     0.1    -0.0     0.0     0.0     0.0
     0.0    -0.0     0.0    -0.0     0.0     0.0    -0.1    -0.1     0.0    -0.0
    -0.0     0.0    -0.0    -0.0     0.0     0.0     0.0    -0.0    -0.0     0.1
     0.1    -0.0    -0.1     0.0     0.0    -0.0    -0.1    -0.1     0.1     0.0
    -0.1     0.0     0.1    -0.0    -0.0     0.0     0.1     0.0    -0.1    -0.0
     0.1     0.0    -0.0    -0.1     0.0     0.0    -0.1    -0.1    -0.0     0.1
     0.0    -0.1    -0.0    -0.0     0.1    -0.1    -0.0     0.1    -0.1    -0.1
     0.0     0.1    -0.0    -0.1    -0.0     0.0    -0.0    -0.0    -0.0     0.0
    -0.0    -0.0    -0.0     0.0     0.1    -0.0    -0.1     0.0     0.0    -0.1
    -0.1     0.0     0.1    -0.0    -0.0    -0.0     0.0     0.0    -0.1     0.1
    -0.0     0.0    -0.0    -0.1     0.0    -0.0    -0.0    -0.0     0.0     0.1
     0.0    -0.0     0.0     0.0    -0.1    -0.0    -0.0     0.0     0.0    -0.0
     0.1     0.0    -0.0    -0.0    -0.0     0.0     0.0    -0.0    -0.0    -0.1
    -0.0     0.0     0.0    -0.0    -0.0     0.0     0.0     0.0    -0.1    -0.0
     0.1     0.0    -0.0     0.0     0.0    -0.0     0.0    -0.0    -0.0     0.0
    -0.0    -0.0    -0.0     0.0     0.0    -0.0    -0.0     0.0     0.0    -0.0
     0.0     0.1     0.0    -0.1    -0.0     0.0    -0.0    -0.0     0.0    -0.2
     0.0     0.2    -0.2    -0.1     0.2    -0.1    -0.1     0.1    -0.0    -0.0
    -0.0    -0.1     0.0     0.0    -0.0    -0.0    -0.0    -0.0     0.0    -0.0
    -0.0     0.0     0.0    -0.1     0.0     0.1    -0.0     0.0     0.0    -0.1
     0.1    -0.0    -0.0     0.0    -0.1     0.0    -0.0    -0.0     0.0    -0.0
     0.0    -0.0     0.0    -0.0    -0.0     0.0    -0.1     0.0     0.0    -0.1
     0.0     0.0    -0.0     0.0    -0.1    -0.1     0.0    -0.0     0.0     0.0
    -0.0    -0.0    -0.1    -0.0     0.0     0.0     0.0    -0.1     0.0     0.0
    -0.0    -0.0     0.0     0.1     0.0     0.0     0.0    -0.0     0.0    -0.1
    -0.1     0.0    -0.0     0.0    -0.0    -0.0     0.1    -0.0    -0.0     0.0
    -0.0     0.0    -0.0    -0.0     0.0    -0.0     0.0    -0.0     0.0     0.1
     0.0     0.0    -0.0     0.0     0.0    -0.1    -0.1     0.1     0.0    -0.1
     0.0    -0.0    -0.1     0.1    -0.0    -0.1     0.1    -0.0    -0.1     0.0
    -0.0     0.0     0.1    -0.1     0.0     0.0    -0.0    -0.0    -0.0     0.0
    -0.0    -0.0     0.0     0.1     0.0    -0.0     0.0     0.0     0.0    -0.0
    -0.0     0.0    -0.0     0.0    -0.0     0.0     0.0     0.0     0.0     0.0
     0.0    -0.0     0.0     0.1     0.0    -0.0    -0.0     0.0     0.0    -0.0
    -0.0     0.0     0.0    -0.0    -0.0    -0.0    -0.0    -0.0    -0.0     0.0
     0.0    -0.0    -0.1    -0.0     0.0    -0.0    -0.0     0.0    -0.0     0.0
     0.1     0.0     0.0    -0.0    -0.0     0.0     0.0    -0.0    -0.0     0.0
     0.0     0.0     0.0    -0.0     0.0    -0.0    -0.0    -0.0     0.0     0.1
     0.0     0.0     0.0     0.0    -0.0    -0.0     0.0     0.0    -0.0    -0.0
    -0.0     0.0     0.0    -0.1     0.0     0.0     0.0     0.0    -0.0     0.0
     0.0    -0.0    -0.0     0.0     0.0     0.0     0.0     0.0     0.0     0.0
     0.0    -0.0     0.0     0.0    -0.0    -0.0     0.1     0.1     0.0    -0.1
     0.0     0.1    -0.1     0.0     0.1    -0.1    -0.0     0.1    -0.1    -0.1
     0.1    -0.0     0.0     0.1    -0.1    -0.1     0.1    -0.0    -0.0    -0.0
     0.0     0.1    -0.0     0.0     0.0     0.0    -0.0     0.0     0.0    -0.0
     0.0     0.0     0.0     0.1    -0.0    -0.0     0.0    -0.0     0.0     0.0
     0.0     0.0    -0.0    -0.0     0.0     0.0     0.1    -0.0    -0.0     0.1
    -0.0    -0.1     0.0     0.0    -0.1    -0.0     0.0     0.0     0.0    -0.0
     0.0     0.0     0.0    -0.0    -0.0     0.0     0.0     0.0    -0.1     0.0
     0.1    -0.0     0.0    -0.0     0.0     0.0    -0.0     0.1     0.0     0.0
    -0.0    -0.0    -0.0     0.0     0.0     0.0    -0.0     0.0     0.0    -0.0
     0.0     0.0    -0.0     0.0     0.0     0.0     0.0     0.0     0.0     0.0
     0.0    -0.0     0.0     0.1    -0.0    -0.0     0.1    -0.0     0.0     0.1
    -0.1    -0.1     0.1     0.0    -0.1     0.1     0.0    -0.1     0.1     0.0
    -0.0     0.1     0.0    -0.0    -0.0    -0.0     0.1     0.0    -0.0     0.0
    -0.0     0.0     0.0    -0.0    -0.1    -0.0     0.1     0.0     0.0    -0.0
    -0.0     0.0    -0.0     0.0     0.0     0.0     0.0    -0.1     0.0     0.1
    -0.0    -0.1     0.0     0.0    -0.0     0.0    -0.0     0.0     0.1    -0.1
     0.0     0.0    -0.0    -0.0     0.0     0.1     0.0    -0.0     0.0     0.1
     0.0    -0.1    -0.0     0.0     0.0    -0.0    -0.0     0.0     0.0     0.1
     0.0     0.0     0.1    -0.1    -0.0    -0.0     0.0     0.1    -0.0    -0.0
     0.0     0.0    -0.0    -0.0     0.1     0.0     0.0     0.0     0.0     0.0
    -0.0    -0.0    -0.0    -0.0     0.0     0.1    -0.0    -0.0    -0.0    -0.0
    -0.0    -0.0     0.0     0.0     0.0     0.1     0.0    -0.1     0.1     0.0
    -0.1     0.1    -0.0    -0.1     0.1     0.0    -0.1    -0.1     0.0     0.1
     0.0    -0.1     0.0     0.1     0.0     0.0    -0.0    -0.0    -0.0    -0.0
    -0.1    -0.0    -0.0     0.0     0.0     0.0    -0.0    -0.0     0.1     0.0
    -0.0    -0.0    -0.0     0.0     0.1     0.1    -0.0     0.0    -0.0    -0.0
     0.1    -0.1    -0.0     0.0     0.0     0.1    -0.0    -0.0     0.1     0.0
    -0.0    -0.0    -0.0     0.0    -0.0    -0.1    -0.1     0.0     0.0    -0.0
    -0.0    -0.0     0.0     0.0    -0.0     0.0     0.0     0.0     0.0    -0.0
    -0.0    -0.0    -0.0    -0.0     0.1    -0.0    -0.0     0.0     0.0     0.1
    -0.0    -0.0    -0.0    -0.0     0.1    -0.0     0.0     0.0    -0.0    -0.0
     0.0     0.0    -0.0     0.0    -0.0    -0.0     0.0     0.0    -0.0     0.1
     0.1    -0.0    -0.1     0.0     0.0     0.0    -0.0    -0.0     0.0     0.0
     0.0    -0.1    -0.0     0.1     0.0    -0.0    -0.0     0.0    -0.0     0.0
    -0.0    -0.0     0.0    -0.0    -0.0     0.0    -0.0     0.0     0.0    -0.1
     0.1     0.0    -0.1     0.0    -0.0     0.0    -0.0    -0.1     0.0     0.0
    -0.0    -0.1    -0.0     0.0     0.0     0.0    -0.1     0.0     0.0    -0.0
     0.0    -0.0     0.0     0.0    -0.0    -0.0     0.0     0.0    -0.0    -0.0
     0.0     0.0    -0.0     0.0     0.0     0.0     0.1    -0.0    -0.0     0.1
    -0.0    -0.0    -0.0    -0.0    -0.0    -0.0    -0.0     0.0     0.0    -0.0
    -0.0     0.0     0.0    -0.0    -0.0     0.0     0.0     0.0    -0.1     0.0
     0.0    -0.0     0.0    -0.0     0.0    -0.0    -0.0     0.0    -0.0     0.0
    -0.0    -0.0    -0.0     0.0     0.1    -0.0    -0.1     0.0     0.0     0.0
     0.0     0.0     0.0     0.0    -0.0    -0.1    -0.0     0.0     0.0     0.0
     0.0     0.0     0.0    -0.0    -0.0    -0.0    -0.0    -0.0     0.0    -0.0
    -0.0     0.0     0.0    -0.0     0.0     0.0     0.0     0.0    -0.0    -0.0
     0.0     0.0    -0.0    -0.0     0.0     0.0    -0.0     0.0     0.0    -0.0
    -0.0    -0.0     0.0    -0.0    -0.0    -0.0     0.0     0.0    -0.0     0.0
    -0.0     0.0     0.0    -0.0     0.0     0.0    -0.0    -0.0    -0.0     0.0
    -0.0    -0.0     0.0     0.0    -0.0    -0.1    -0.0     0.1    -0.0    -0.0
     0.0     0.0     0.0    -0.1    -0.0     0.0     0.0     0.0    -0.0     0.1
     0.0    -0.0    -0.1    -0.0     0.0    -0.0    -0.0    -0.0     0.0     0.0
    -0.0     0.0    -0.0     0.0     0.0    -0.0     0.1     0.0    -0.1    -0.0
     0.1     0.0    -0.1    -0.1     0.0     0.1    -0.0     0.0     0.0    -0.0
     0.0    -0.0    -0.0    -0.1     0.0     0.0    -0.0    -0.0    -0.1     0.0
     0.1    -0.0     0.0     0.0     0.0     0.0    -0.0    -0.0     0.0     0.0
     0.0     0.0    -0.0    -0.1    -0.0     0.0     0.0     0.0    -0.0    -0.0
     0.0     0.0    -0.0    -0.0     0.0     0.0    -0.0    -0.0     0.0     0.0
    -0.0    -0.0     0.0     0.0    -0.0    -0.0     0.0     0.0     0.0    -0.1
     0.0     0.0     0.0     0.0    -0.0     0.0     0.0    -0.0    -0.1     0.0
     0.0     0.0    -0.0    -0.0     0.0    -0.0    -0.0    -0.0     0.0     0.0
    -0.0     0.0     0.0    -0.0    -0.0     0.0     0.0     0.0     0.0    -0.0
     0.0     0.0    -0.0    -0.0     0.0     0.0    -0.0    -0.0     0.0    -0.0
    -0.0    -0.0    -0.0     0.1    -0.1    -0.1     0.1     0.1    -0.1    -0.2
     0.0     0.1     0.0    -0.0    -0.1     0.0     0.0     0.0     0.0    -0.0
     0.0    -0.1    -0.0     0.1     0.0    -0.0    -0.1     0.0     0.0    -0.0
    -0.0     0.0     0.0    -0.1     0.0     0.1    -0.0    -0.0    -0.0     0.0
     0.0    -0.0     0.0     0.0     0.0    -0.0     0.0    -0.0    -0.0     0.0
    -0.0     0.0     0.0     0.0    -0.0    -0.0     0.1     0.0    -0.0    -0.0
     0.0     0.0    -0.0     0.0     0.0     0.0     0.0     0.0     0.0    -0.0
     0.0    -0.0    -0.0    -0.0     0.0    -0.0    -0.0     0.0     0.0    -0.0
    -0.0    -0.0     0.0    -0.0    -0.1    -0.0     0.0    -0.0    -0.0    -0.0
    -0.0     0.0    -0.1    -0.0     0.1     0.0    -0.0    -0.1     0.0     0.0
    -0.1    -0.1    -0.0     0.1     0.0    -0.1    -0.0     0.0     0.0    -0.0
     0.0     0.0    -0.0    -0.0    -0.0     0.0     0.0    -0.1     0.1     0.1
    -0.0    -0.1     0.0     0.0     0.0     0.0    -0.0     0.0     0.1     0.0
    -0.0    -0.0     0.0    -0.0    -0.0    -0.0    -0.0     0.0    -0.0     0.0
     0.0    -0.1    -0.0     0.0     0.0    -0.0    -0.1     0.1     0.0    -0.1
     0.0    -0.0     0.0    -0.0    -0.1     0.1     0.0    -0.1    -0.1     0.0
     0.1    -0.0    -0.1    -0.0     0.0     0.1    -0.0     0.0     0.1    -0.0
    -0.0    -0.0     0.0     0.1    -0.1    -0.0     0.1     0.0     0.0    -0.1
    -0.0     0.1    -0.0     0.0     0.0     0.0    -0.0    -0.0     0.0     0.0
    -0.0    -0.0     0.0     0.0    -0.0    -0.1    -0.0     0.0     0.0     0.0
    -0.0    -0.0    -0.0    -0.0    -0.0     0.0     0.1     0.0     0.0     0.0
    -0.0    -0.0    -0.0    -0.0    -0.0    -0.0     0.0     0.0    -0.1    -0.1
     0.0     0.0     0.0    -0.1    -0.0     0.1     0.1    -0.0    -0.1    -0.0
     0.1     0.0    -0.0    -0.1     0.0     0.1     0.0     0.0    -0.1    -0.0
     0.1     0.0     0.0     0.0     0.0     0.0     0.0     0.0    -0.1     0.0
     0.0     0.0    -0.0    -0.1     0.0     0.0    -0.0    -0.0     0.0     0.1
    -0.0    -0.0     0.0    -0.0     0.0    -0.1    -0.0     0.1     0.0    -0.1
     0.0     0.1     0.0    -0.1    -0.0     0.1     0.0    -0.0    -0.0     0.1
     0.1    -0.1    -0.1     0.0    -0.0     0.0    -0.0     0.0     0.0    -0.0
    -0.0    -0.0     0.0     0.0    -0.0    -0.0     0.1     0.0    -0.0     0.0
    -0.0    -0.0     0.0    -0.0     0.0     0.0    -0.0    -0.0     0.0     0.0
     0.0     0.0     0.0    -0.0    -0.0     0.0    -0.0     0.0     0.0    -0.0
    -0.0    -0.0     0.0    -0.0    -0.1     0.0     0.0     0.0    -0.0    -0.0
     0.0     0.0     0.1    -0.0    -0.0    -0.0    -0.0     0.0     0.0    -0.0
    -0.0    -0.1     0.0     0.0    -0.0     0.0     0.0     0.0    -0.0    -0.0
    -0.0    -0.0     0.0    -0.0    -0.0     0.1    -0.1    -0.0     0.0     0.0
    -0.0     0.0     0.0    -0.0    -0.0    -0.0     0.0     0.1    -0.0    -0.0
     0.0     0.0     0.0    -0.0    -0.0     0.1     0.0     0.0     0.0     0.0
     0.0    -0.0    -0.0     0.0     0.0    -0.0    -0.0     0.0     0.0     0.0
    -0.0     0.0    -0.0    -0.0     0.0    -0.0     0.0     0.1    -0.0    -0.0
     0.0    -0.1    -0.0     0.0    -0.0     0.0    -0.0    -0.1     0.0     0.0
     0.0    -0.0    -0.0     0.0     0.0     0.0    -0.0     0.0     0.1     0.0
    -0.0     0.0     0.0    -0.0     0.0    -0.0    -0.0     0.0     0.0    -0.1
    -0.0     0.0    -0.0     0.0    -0.0     0.1    -0.0    -0.1     0.1     0.0
    -0.0     0.0    -0.0     0.1    -0.1    -0.0     0.2    -0.0    -0.0     0.1
     0.0    -0.1    -0.1     0.1     0.1    -0.0    -0.0    -0.1     0.1    -0.0
    -0.0     0.1    -0.1     0.0    -0.1     0.0     0.1    -0.1    -0.0    -0.0
     0.0     0.1    -0.0    -0.1     0.1    -0.0    -0.1     0.1    -0.0    -0.0
    -0.1     0.0     0.1    -0.0    -0.0    -0.1     0.0     0.1    -0.1     0.0
     0.0     0.0     0.0    -0.1     0.0     0.1    -0.0    -0.0     0.0     0.0
     0.0    -0.1    -0.0     0.0    -0.0    -0.0     0.0     0.0     0.0     0.0
     0.0     0.0     0.0    -0.1    -0.0     0.0     0.0    -0.0    -0.1     0.0
     0.0    -0.0     0.1     0.0    -0.0    -0.1    -0.0     0.1     0.0    -0.0
     0.0     0.0     0.0    -0.0    -0.0     0.0     0.0    -0.0     0.1     0.1
    -0.0     0.0    -0.0    -0.0     0.1    -0.1    -0.0     0.1     0.0    -0.0
    -0.0    -0.1    -0.0     0.0     0.1     0.0    -0.1    -0.1    -0.0     0.3
     0.1    -0.1    -0.1    -0.1     0.0     0.2     0.1    -0.2    -0.1     0.1
     0.0     0.1    -0.0    -0.1    -0.0     0.0     0.1     0.0    -0.0    -0.0
     0.0    -0.0    -0.0     0.0    -0.0     0.0     0.0    -0.0    -0.0     0.0
     0.0    -0.0    -0.1    -0.0     0.1     0.0    -0.0    -0.0     0.0     0.1
     0.0    -0.0     0.0     0.0     0.0    -0.0    -0.0     0.0    -0.0    -0.0
     0.0     0.0     0.1    -0.0    -0.0     0.0     0.0     0.0    -0.0     0.0
     0.0     0.0    -0.1     0.0     0.1    -0.0    -0.1    -0.1     0.1     0.0
    -0.1    -0.0    -0.0     0.1     0.0     0.0     0.0     0.0     0.0    -0.0
    -0.0    -0.0    -0.0     0.0     0.0    -0.0    -0.0    -0.0     0.1     0.0
    -0.1     0.1    -0.1    -0.1     0.3     0.0    -0.2     0.1     0.0    -0.2
     0.1     0.2     0.0     0.1    -0.4    -0.2     0.3     0.2     0.1    -0.1
    -0.2    -0.0     0.3     0.1    -0.0    -0.1    -0.2     0.1     0.2    -0.0
    -0.0    -0.0    -0.0     0.0     0.1    -0.1     0.0     0.1    -0.1     0.1
     0.0    -0.0     0.1    -0.0    -0.0     0.1    -0.1    -0.0     0.1    -0.0
    -0.1     0.0    -0.0     0.1    -0.0    -0.0     0.1     0.0    -0.0     0.0
     0.1     0.0    -0.1    -0.0     0.0     0.0    -0.0    -0.0     0.0     0.1
     0.0    -0.0    -0.0     0.0     0.0    -0.0     0.0     0.1    -0.0    -0.1
     0.0     0.1     0.1    -0.1    -0.1     0.1    -0.1     0.1     0.0     0.0
     0.1    -0.1    -0.0     0.1    -0.0    -0.0    -0.0     0.0     0.0     0.0
    -0.1    -0.0     0.1    -0.0    -0.0     0.0     0.0    -0.1     0.0     0.2
     0.1     0.0    -0.0    -0.2    -0.0     0.1     0.1    -0.0    -0.0    -0.2
    -0.1     0.3     0.2    -0.1    -0.1    -0.2     0.1     0.3    -0.1    -0.1
    -0.1    -0.1     0.2     0.0    -0.1    -0.1    -0.1     0.1     0.1     0.1
    -0.1    -0.1     0.1     0.0     0.0    -0.1     0.0     0.1    -0.0    -0.0
     0.0     0.1     0.0    -0.0    -0.0     0.0     0.0    -0.0    -0.0     0.1
     0.1    -0.1    -0.0     0.0     0.1    -0.0    -0.1     0.1     0.1     0.0
    -0.0    -0.0     0.1    -0.0    -0.0     0.0     0.0     0.0    -0.0     0.0
     0.1     0.0    -0.1     0.0     0.0     0.0     0.0    -0.1     0.0     0.0
    -0.0     0.0     0.1     0.0    -0.0     0.0     0.0     0.1     0.0    -0.2
    -0.0     0.1    -0.0     0.1     0.0     0.0     0.1    -0.1     0.0    -0.0
    -0.0    -0.0    -0.0     0.1    -0.0    -0.1    -0.0     0.1     0.1    -0.1
    -0.0    -0.0    -0.1     0.1     0.2    -0.0    -0.1    -0.1    -0.0     0.2
     0.1    -0.0    -0.1    -0.1     0.0     0.2     0.0    -0.1     0.0    -0.0
    -0.1     0.1     0.1    -0.1     0.0    -0.0     0.1     0.1    -0.1     0.0
     0.1    -0.0    -0.0     0.0    -0.0     0.0    -0.0    -0.1     0.1     0.0
     0.0     0.0    -0.0     0.1     0.0    -0.1     0.0     0.0    -0.0    -0.0
    -0.0     0.0     0.1     0.0    -0.0    -0.1     0.0     0.0     0.0     0.0
     0.1     0.0    -0.1     0.0     0.1     0.0    -0.0    -0.1     0.1     0.1
    -0.1    -0.0     0.0     0.0     0.0    -0.0    -0.0     0.0     0.0    -0.1
     0.0     0.0    -0.0    -0.1    -0.0     0.1    -0.0     0.0     0.0     0.0
    -0.0    -0.0     0.0     0.0     0.0    -0.1     0.0     0.1    -0.0     0.0
    -0.0     0.0     0.0    -0.0     0.0     0.0     0.0    -0.1     0.0     0.1
     0.0     0.0    -0.0     0.0     0.0    -0.0     0.0    -0.0     0.0    -0.0
    -0.0     0.0    -0.0    -0.0    -0.0     0.1     0.0    -0.0    -0.0     0.0
     0.0    -0.1     0.1     0.0     0.0     0.0    -0.1     0.1     0.1     0.0
    -0.0    -0.1    -0.0    -0.0     0.0     0.0     0.0    -0.0    -0.1     0.0
     0.1    -0.0    -0.0    -0.0     0.0     0.0    -0.1    -0.0     0.1    -0.0
    -0.1    -0.1     0.1     0.0    -0.0     0.0    -0.0     0.0     0.0    -0.1
     0.0     0.0    -0.1    -0.1     0.0     0.1     0.0    -0.0     0.0     0.0
    -0.0    -0.0     0.0     0.0     0.0    -0.1    -0.0     0.0     0.0     0.0
     0.0    -0.0    -0.0    -0.0    -0.0     0.0     0.0    -0.1    -0.0     0.1
     0.0     0.0    -0.0     0.0     0.0    -0.0     0.0    -0.0     0.0    -0.0
    -0.1    -0.0     0.0    -0.0    -0.0     0.0     0.0     0.0    -0.0    -0.0
     0.0     0.0    -0.0    -0.1     0.0     0.0    -0.1    -0.0     0.1     0.0
    -0.1    -0.0     0.1     0.1    -0.1    -0.1     0.0     0.1    -0.1    -0.1
     0.1     0.0    -0.0    -0.0     0.1     0.1    -0.0     0.0    -0.0     0.0
     0.0    -0.1     0.1     0.0    -0.1    -0.0    -0.0     0.1     0.1    -0.0
    -0.1     0.0    -0.0     0.0     0.0    -0.0     0.0     0.1    -0.0    -0.0
     0.0     0.0     0.0    -0.1     0.0    -0.1     0.1     0.0    -0.1     0.0
    -0.0     0.1    -0.0    -0.2     0.2    -0.0    -0.1     0.0    -0.0     0.1
    -0.1    -0.1     0.1     0.1    -0.0    -0.1    -0.0     0.0     0.0    -0.0
    -0.0     0.1    -0.0    -0.1     0.0     0.1    -0.0     0.0     0.0     0.0
    -0.0    -0.1     0.0    -0.0    -0.0     0.0    -0.0    -0.0     0.0     0.0
    -0.0     0.0    -0.0    -0.0    -0.0     0.0     0.0    -0.0    -0.0     0.0
    -0.0    -0.0     0.0     0.0    -0.0    -0.0    -0.0     0.1    -0.0    -0.1
     0.0     0.0    -0.0    -0.0     0.0    -0.0    -0.0    -0.0    -0.0     0.1
     0.0    -0.0     0.0     0.0     0.0    -0.0    -0.1     0.0     0.0    -0.0
