Uncorrected accelerogram 20161122_001942_TSZ_20 GNS Science
Site TSZ       40 03 31S  175 57 40E     Basalt file:  20161122_002004_TSZ
Takapari Road
Instrument Basalt_2436
Resolution: 24-bit   Instr Period: 0.0050 s   Damping: 0.700
Accelerogram 20161122_001942_TSZ_20                  Processed 2016 November 22
66 km south-east of Porangahau
2016 November 22         00:19:42 UT
Epicentre  40 40 25S 177 13 44E  Bearing S57E  Dist  128km  Depth   29km M  5.55
Number of points  29800    Duration 149.00 s
Raw readings in units of 1.00 mm/s/s  at intervals of 0.005 s
Data is unfiltered
Component S90E
Acceleration:  Peak     -8.5 mm/s/s at  57.82 s     RMS     1.25 mm/s/s
Velocity record unevaluated
Displacement record unevaluated
    2016      11      22       0      19     420       0       0    2016      11
      40      40      25     177      13      44      29       0      22       0
      40       3      31     175      57      40      90      90     123     128
   29800       0       0   29800       0       0       0       0      19   24000
   200.0    0.70    0.00   0.000  0.0000   0.000   0.000   1.000     0.0    0.00
  40.059 175.961  40.674 177.229    5.55    0.00    0.00    0.00      0.      0.
  149.00    0.00    0.00  149.00  0.0050  0.0050      0.      0.      0.  9806.6
    -8.5   57.82     1.3      0.      0.     0.0    0.00     0.0     0.0   0.000
    0.00    0.00    0.00    0.00   0.000    0.00    0.00    0.00    0.00   0.000
   0.000   0.000   0.000      0.      0.   0.000   0.000   0.000      0.      0.
    -0.0    -0.2    -0.1     0.1     0.0     0.1     0.1    -0.0     0.0     0.1
     0.0    -0.0    -0.0    -0.0    -0.1    -0.0     0.0     0.0     0.1    -0.0
    -0.1    -0.1     0.0     0.1     0.0    -0.1    -0.0     0.1     0.1    -0.0
    -0.1    -0.2     0.0    -0.0     0.1     0.1    -0.1     0.0    -0.1    -0.1
     0.1    -0.0    -0.0    -0.0     0.2     0.1    -0.0     0.0    -0.1     0.1
     0.0    -0.1    -0.0     0.0     0.1     0.0    -0.1     0.0    -0.0     0.0
     0.0    -0.1    -0.0     0.1     0.1     0.1    -0.0    -0.1     0.0     0.1
    -0.0    -0.2    -0.0     0.1     0.1     0.1     0.0    -0.1    -0.1    -0.1
    -0.0    -0.1    -0.0     0.3     0.1    -0.1    -0.1    -0.1    -0.0     0.0
     0.1     0.1    -0.1     0.1     0.0    -0.0     0.0    -0.2    -0.2     0.1
     0.2     0.2     0.1    -0.0    -0.1    -0.1    -0.1    -0.0     0.1     0.0
    -0.0     0.0     0.2     0.1    -0.1    -0.1    -0.1    -0.1     0.1     0.1
     0.1     0.1    -0.0    -0.1    -0.1     0.0    -0.0     0.0     0.0     0.1
     0.0    -0.0     0.1     0.0    -0.0    -0.1    -0.1     0.0     0.0     0.1
     0.1     0.0    -0.1    -0.1     0.0     0.0    -0.0    -0.1     0.0     0.1
     0.1     0.0    -0.0    -0.1    -0.1     0.1     0.1     0.1     0.0    -0.0
    -0.0    -0.0     0.0     0.0    -0.1    -0.0     0.1     0.0     0.1     0.1
    -0.1     0.0     0.0     0.2    -0.0    -0.1    -0.1    -0.1     0.1     0.2
    -0.0    -0.1     0.1     0.0    -0.1    -0.0    -0.0     0.0     0.1    -0.0
    -0.1     0.1     0.1     0.1    -0.0    -0.1    -0.1    -0.0     0.0     0.2
     0.1    -0.0    -0.2    -0.1    -0.0     0.1     0.1     0.0     0.0    -0.0
     0.0    -0.0    -0.1     0.0     0.1     0.1     0.0    -0.0    -0.1    -0.1
     0.1     0.0     0.1     0.0     0.1     0.2    -0.0    -0.5    -0.6    -0.1
     0.3     0.7     0.7    -0.1    -0.5    -0.6    -0.4     0.0     0.5     0.7
     0.1    -0.4    -0.2     0.1    -0.1    -0.2    -0.1     0.1     0.2     0.1
     0.0    -0.0     0.1    -0.1    -0.1     0.1    -0.0    -0.1    -0.1     0.1
     0.1     0.1     0.3    -0.0    -0.2    -0.1     0.0     0.1    -0.0    -0.0
     0.1     0.0     0.1     0.1    -0.1     0.0     0.1     0.0     0.0    -0.0
    -0.0    -0.0    -0.0     0.1     0.0     0.0     0.0    -0.1     0.0    -0.0
    -0.1     0.0     0.1     0.1     0.1    -0.1    -0.0     0.0    -0.1    -0.2
    -0.1     0.2     0.2     0.1    -0.1    -0.1    -0.0     0.0    -0.1     0.0
     0.1     0.1     0.0    -0.1     0.1     0.1     0.0    -0.0    -0.1     0.0
     0.1     0.1     0.0    -0.2    -0.1    -0.0     0.1     0.2     0.1    -0.0
    -0.1    -0.2    -0.0     0.3     0.4     0.1    -0.2    -0.0    -0.1    -0.1
     0.1     0.2     0.2    -0.2    -0.2     0.0     0.1     0.2     0.1    -0.1
    -0.1     0.0     0.0     0.1     0.0    -0.0     0.1     0.0     0.1    -0.1
    -0.1     0.1    -0.0     0.1     0.1     0.1     0.1    -0.1    -0.1    -0.1
    -0.1     0.0     0.1     0.1     0.1    -0.1    -0.1    -0.0     0.1     0.0
    -0.1    -0.0     0.0     0.1     0.0    -0.0     0.0     0.0    -0.0     0.0
    -0.1    -0.0     0.1     0.2     0.2    -0.1    -0.1    -0.1    -0.0     0.1
     0.1     0.1     0.1     0.1    -0.0    -0.1    -0.1     0.1     0.2     0.2
     0.0    -0.3    -0.1     0.1     0.2     0.1    -0.1    -0.1     0.0     0.0
     0.1    -0.0    -0.1    -0.0     0.0     0.0    -0.0     0.0     0.0     0.1
     0.0    -0.0    -0.1    -0.1     0.1     0.0     0.1     0.1    -0.1    -0.2
    -0.2    -0.2     0.0     0.2     0.3     0.2     0.1    -0.1    -0.1    -0.1
    -0.1     0.0     0.1     0.0     0.1     0.2    -0.0    -0.0    -0.1    -0.1
     0.0    -0.0     0.0     0.1     0.1     0.0    -0.0    -0.0    -0.0    -0.0
    -0.1     0.0     0.1     0.1     0.1    -0.0    -0.0    -0.0    -0.1    -0.1
    -0.0     0.1     0.1    -0.0    -0.0     0.1     0.1    -0.0     0.0    -0.1
    -0.1     0.1     0.0     0.1    -0.0    -0.0    -0.0     0.0     0.0    -0.1
    -0.0    -0.0     0.1     0.1     0.0     0.1     0.0     0.0    -0.0    -0.1
     0.0     0.0     0.1     0.1     0.0     0.1     0.0     0.0     0.1    -0.1
    -0.1     0.0     0.1     0.1    -0.1    -0.1     0.0     0.2     0.2    -0.4
    -0.5     0.4     0.6     0.1    -0.4    -0.4     0.1     0.1    -0.1     0.3
     0.2     0.0     0.1    -0.2    -0.3    -0.1     0.1     0.2     0.1    -0.2
    -0.2    -0.0     0.2     0.3     0.2    -0.1    -0.3    -0.2    -0.1     0.2
     0.3     0.1    -0.0    -0.1    -0.1     0.0     0.0    -0.1     0.0     0.1
    -0.0     0.0     0.1     0.0     0.1    -0.1    -0.1    -0.0     0.1     0.1
    -0.0    -0.0    -0.1     0.0     0.1    -0.0    -0.1    -0.1    -0.0     0.1
     0.1     0.0    -0.0    -0.0     0.1     0.1     0.1     0.0    -0.1    -0.1
    -0.1     0.0     0.2     0.2    -0.0    -0.1    -0.1     0.0     0.1     0.0
     0.1    -0.1    -0.1     0.0     0.1     0.1    -0.1    -0.1     0.4     0.4
     0.0    -0.5    -0.5     0.2     0.2    -0.0     0.3     0.3    -0.1    -0.3
    -0.2    -0.0     0.2     0.1    -0.1    -0.1    -0.0     0.1     0.2    -0.0
     0.0     0.0    -0.1     0.1    -0.0    -0.1     0.0     0.1     0.1    -0.0
    -0.1    -0.1    -0.0     0.0    -0.1     0.0     0.1     0.1     0.1    -0.1
    -0.0    -0.0     0.0     0.1     0.0     0.0     0.0     0.0    -0.0    -0.0
    -0.1    -0.1     0.0     0.1     0.1     0.1    -0.0    -0.0    -0.0    -0.1
     0.0     0.0     0.0     0.2     0.1    -0.1     0.0     0.1     0.0    -0.1
    -0.2    -0.0     0.1     0.1     0.3     0.1     0.0     0.0    -0.2    -0.3
    -0.2     0.1     0.1    -0.0     0.1     0.1     0.2     0.2    -0.1    -0.2
    -0.2    -0.2    -0.1     0.0     0.3     0.4     0.3     0.1    -0.3    -0.4
    -0.2    -0.1     0.1     0.2     0.3     0.2     0.1     0.0    -0.2    -0.2
    -0.1     0.0     0.1     0.2     0.2    -0.0    -0.0    -0.0    -0.1    -0.1
    -0.0     0.0     0.1     0.1     0.0     0.1     0.0    -0.1    -0.0    -0.0
    -0.0     0.0     0.0     0.1     0.1    -0.1    -0.1    -0.1     0.0     0.1
     0.0     0.1    -0.0    -0.1    -0.0    -0.1    -0.1     0.0     0.1     0.2
     0.0    -0.1    -0.1     0.0    -0.0    -0.2     0.0     0.1     0.1     0.2
    -0.1    -0.0     0.0     0.0     0.2    -0.1    -0.0     0.0    -0.1     0.1
    -0.1    -0.1     0.1     0.1     0.1     0.0     0.1     0.2     0.0     0.1
    -0.1    -0.4    -0.2    -0.1     0.2     0.3     0.3     0.0    -0.4    -0.1
     0.0    -0.1     0.1     0.4     0.4    -0.2    -0.2    -0.1     0.1     0.1
    -0.1    -0.2     0.0     0.2     0.1     0.0    -0.0    -0.2    -0.0     0.0
    -0.0    -0.1    -0.0     0.1     0.1     0.0    -0.0     0.1     0.1     0.0
    -0.1    -0.0     0.1     0.2     0.1    -0.1    -0.1    -0.0     0.1     0.0
    -0.1    -0.0     0.0     0.1    -0.0    -0.1     0.0     0.0     0.1    -0.0
    -0.0    -0.0     0.1    -0.0    -0.1     0.1     0.0     0.1     0.0    -0.1
    -0.1    -0.0     0.1     0.0     0.1     0.2    -0.1    -0.5    -0.0     0.5
     0.2    -0.2    -0.2     0.2     0.4    -0.2    -0.2     0.2    -0.1    -0.6
    -0.0     0.7     0.5    -0.1    -0.5    -0.2     0.3     0.2    -0.2    -0.2
     0.0     0.3     0.2    -0.3     0.1     0.2    -0.1    -0.1     0.2     0.1
    -0.2     0.0     0.1    -0.1    -0.1     0.1     0.2    -0.1    -0.1    -0.1
    -0.0    -0.1    -0.0     0.3     0.1    -0.0    -0.1    -0.2    -0.0     0.0
     0.0     0.2     0.1    -0.0     0.0    -0.0    -0.1    -0.1     0.0     0.0
     0.1     0.1    -0.1    -0.1     0.0    -0.0     0.0     0.1     0.1     0.0
    -0.0     0.0     0.1     0.0    -0.0    -0.1    -0.1     0.0     0.3     0.2
    -0.1    -0.1    -0.2     0.0     0.1    -0.1    -0.1     0.2     0.4     0.1
    -0.2    -0.2     0.1     0.2     0.1     0.1    -0.1    -0.1    -0.0    -0.1
    -0.2    -0.0     0.2     0.1    -0.0    -0.1     0.0     0.1     0.0     0.1
    -0.1    -0.1     0.2     0.1     0.1     0.1    -0.0    -0.1     0.0     0.0
    -0.0    -0.1    -0.0     0.2     0.1     0.0     0.1    -0.0    -0.1    -0.1
     0.0     0.2     0.2     0.1     0.1    -0.1    -0.1    -0.0    -0.1     0.0
     0.0     0.1     0.1    -0.0    -0.0    -0.0     0.0     0.0     0.1     0.1
    -0.0     0.0     0.0     0.1     0.1    -0.0     0.1    -0.0    -0.1    -0.0
    -0.1     0.0     0.0     0.0     0.2     0.0    -0.1    -0.1    -0.2    -0.1
     0.1     0.2     0.2     0.4     0.2    -0.8    -0.5     0.6     0.5     0.0
     0.0    -0.1    -0.2    -0.1     0.1     0.1     0.1     0.1     0.1    -0.2
    -0.3    -0.0     0.1     0.1     0.2     0.2     0.1     0.1    -0.2    -0.3
    -0.1    -0.0     0.1     0.0     0.1     0.2     0.1    -0.1    -0.1     0.0
     0.1    -0.1    -0.1     0.1     0.3     0.2    -0.1    -0.1    -0.0     0.0
     0.1    -0.1    -0.1     0.0     0.0    -0.0    -0.1     0.1     0.2     0.0
    -0.0    -0.1    -0.0     0.1     0.1     0.1    -0.0    -0.1    -0.1    -0.0
     0.0    -0.0    -0.0     0.1     0.1     0.1    -0.1    -0.2    -0.1     0.0
     0.2     0.0    -0.1     0.0     0.1     0.1     0.1     0.1    -0.0    -0.1
    -0.1     0.0    -0.0    -0.0     0.0     0.1     0.1    -0.1    -0.1    -0.2
    -0.0    -0.0     0.1     0.0    -0.4    -0.0     0.5     0.9     0.6    -0.5
    -0.7    -0.5    -0.4     0.1     0.5     0.3     0.0    -0.2    -0.2    -0.1
     0.1     0.2     0.0    -0.0    -0.1    -0.0     0.3    -0.2    -0.4     0.1
     0.2     0.7     0.3    -0.4    -0.3    -0.6    -0.1     0.7     0.5     0.0
    -0.3    -0.3     0.0     0.0    -0.0     0.2     0.1     0.1    -0.1    -0.3
    -0.1     0.1     0.0    -0.1    -0.1     0.1     0.0     0.2     0.2    -0.0
    -0.0    -0.2    -0.1     0.3     0.3     0.1    -0.2    -0.5    -0.4    -0.1
     0.1     0.2     0.1    -0.1    -0.0     0.2     0.0     0.1     0.0    -0.1
     0.0    -0.1     0.0     0.2     0.0     0.1     0.1    -0.0    -0.1    -0.2
    -0.1    -0.1     0.0     0.1     0.0     0.2     0.1    -0.1    -0.1    -0.1
     0.0     0.1     0.1     0.1    -0.0     0.1     0.1     0.1     0.0    -0.1
    -0.1    -0.1     0.1     0.2     0.1     0.1    -0.0    -0.1    -0.1    -0.1
    -0.2    -0.1    -0.3    -0.1     0.2     0.2     0.5     0.4     0.0    -0.1
    -0.1    -0.2    -0.3    -0.0     0.1     0.1     0.1     0.1     0.1     0.1
     0.0    -0.0    -0.3    -0.4    -0.3    -0.0     0.3     0.4     0.2     0.1
     0.0     0.0    -0.1    -0.2    -0.1    -0.1    -0.2    -0.1    -0.1    -0.0
     0.2     0.3     0.4     0.3     0.1    -0.2    -0.4    -0.5    -0.5    -0.3
     0.1     0.6     0.7     0.5     0.3    -0.1    -0.4    -0.5    -0.5    -0.3
     0.0     0.2     0.3     0.4     0.3     0.2     0.1    -0.1    -0.2    -0.2
    -0.3    -0.3    -0.2     0.0     0.1    -0.2     0.1     0.7     0.9     0.4
    -0.7    -1.0    -0.5    -0.1     0.1     0.3     0.4     0.5     0.5     0.4
     0.2    -0.1    -0.3    -0.3    -0.5    -0.5    -0.2     0.2     0.5     0.7
     0.5     0.3     0.1    -0.3    -0.4    -0.5    -0.5    -0.2    -0.0     0.2
     0.3     0.3     0.5     0.4     0.3    -0.0    -0.4    -0.6    -0.6    -0.3
     0.0     0.2     0.4     0.4     0.5     0.3     0.0    -0.1    -0.5    -0.6
    -0.7     0.1     0.1    -0.5     0.7     0.2     0.2     1.3     0.5    -0.5
    -1.4    -1.0     0.6     0.1    -0.2     0.6     0.3    -0.1    -0.1     0.9
    -0.1    -1.0     0.3    -0.7     0.1     0.1    -0.8     0.1     0.1     1.7
     0.5    -0.7     0.2    -0.2    -0.1    -0.5    -0.5    -0.1     0.3     0.2
     0.4     0.2    -0.5     0.3     0.1     0.0     0.1    -0.6    -0.3     0.2
     0.2    -0.2     0.1     0.6     0.3     0.5     0.2    -0.5    -0.6    -0.6
    -0.3     0.1     0.2     0.3     0.5     0.5     0.4     0.0    -0.3    -0.2
    -0.4    -0.1     0.1    -0.1     0.0    -0.1     0.3     0.2    -0.4    -0.1
     0.2     0.2    -0.0    -0.3    -0.5    -0.2     0.3     0.4     0.4     0.4
     0.1    -0.3     0.1    -0.2    -0.7     0.2     0.5     0.0    -0.6    -0.2
     0.7     0.6     0.3     0.1    -0.4    -0.6    -0.3    -0.2    -0.1     0.3
     0.3     0.4     0.2     0.1    -0.0    -0.1    -0.0    -0.1    -0.1    -0.1
    -0.1    -0.1     0.1     0.1     0.1     0.4     0.1    -0.1    -0.0    -0.3
    -0.6    -0.1     0.6     0.0    -0.0     0.5     0.1    -0.3    -0.1     0.1
    -0.1    -0.0     0.4     0.3    -0.3    -0.2    -0.0    -0.0     0.2     0.0
    -0.0     0.1    -0.0    -0.2    -0.1     0.0    -0.1    -0.0     0.2     0.1
     0.0     0.1    -0.0    -0.2    -1.2     0.3     3.1     0.4    -2.8    -1.3
     0.6     1.1     0.6    -0.3    -0.5     0.0     0.3     0.1    -0.4    -0.3
     0.1     0.1     0.1     0.1     0.1     0.3     0.3    -0.2    -0.4    -0.1
    -0.1    -0.4     0.1     0.1    -0.2     0.3     0.3    -0.0     0.1    -0.0
    -0.3    -0.0     0.0     0.1     0.1     0.1     0.2     0.1     0.0     0.0
    -0.0    -0.1    -0.1     0.1    -0.4    -0.2     0.3     0.1     0.6     0.4
    -0.5    -0.5    -0.3     0.3     0.5     0.2    -0.1    -0.3    -0.2    -0.1
     0.1     0.2     0.1     0.1    -0.1    -0.1    -0.1     0.1     0.1     0.0
     0.0     0.1    -0.0    -0.2     0.1    -0.2    -0.3     0.0    -0.3     0.8
     0.9    -0.5    -0.3    -0.2    -0.2    -0.0     0.0    -0.0     0.0     0.1
     0.2     0.4     0.0    -0.2    -0.3    -0.3     0.0     0.1     0.2     0.1
     0.1     0.0    -0.1     0.1    -0.1    -0.0     0.1     0.0     0.0    -0.0
     0.1     0.1    -0.0    -0.0    -0.1    -0.1    -0.0     0.1     0.1    -0.0
     0.0     0.0     0.0     0.2     0.1     0.1    -0.1    -0.2    -0.1    -0.2
     0.0     0.2     0.1     0.3     0.3    -0.2    -0.4    -0.2     0.1     0.1
     0.1     0.0     0.0     0.0     0.1    -0.0    -0.2    -0.1    -0.0     0.2
     0.2     0.2     0.1    -0.0    -0.2    -0.3    -0.0    -0.0     0.1    -0.0
    -0.1     0.2    -0.3     0.1     0.4    -0.0    -0.1    -0.2    -0.1    -0.2
     0.0     0.1     0.1     0.2    -0.0    -0.0    -0.1     0.0     0.0    -0.1
    -0.0    -0.1     0.0     0.2     0.1    -0.0     0.0     0.1     0.0    -0.1
    -0.0    -0.1    -0.1     0.0    -0.0     0.1     0.1    -0.0    -0.0    -0.0
    -0.0     0.1    -0.0    -0.1    -0.0    -0.0     0.1     0.2     0.3     0.1
    -0.1    -0.1    -0.1    -0.0     0.0    -0.0     0.1     0.0     0.0     0.0
    -0.1    -0.0     0.0     0.1     0.0    -0.0    -0.1    -0.0     0.1     0.0
     0.1     0.1     0.1     0.1    -0.1    -0.2    -0.2    -0.1     0.0     0.0
     0.0     0.1     0.2     0.2     0.2    -0.1    -0.2    -0.2    -0.1    -0.1
    -0.1     0.1     0.1     0.2     0.3     0.1    -0.0    -0.1    -0.1    -0.2
    -0.1    -0.0     0.1     0.2     0.1    -0.0    -0.0     0.0    -0.1    -0.1
    -0.1     0.0     0.2     0.1     0.1     0.0    -0.0    -0.1    -0.1     0.0
     0.0     0.1     0.1     0.0    -0.0    -0.1    -0.0    -0.0     0.1     0.0
    -0.1    -0.2    -0.2     0.0     0.0     0.0     0.1     0.1     0.1     0.1
     0.1     0.1     0.2     0.2     0.1    -0.2    -0.4    -0.4    -0.3    -0.2
     0.2     0.5     0.7     0.6     0.3    -0.2    -0.4    -0.7    -0.7    -0.4
    -0.1     0.3     0.6     0.7     0.5     0.2    -0.0    -0.3    -0.4    -0.5
    -0.5    -0.3     0.0     0.2     0.4     0.5     0.3     0.2     0.1    -0.1
    -0.2    -0.3    -0.3    -0.2    -0.1     0.1     0.2     0.3     0.1     0.1
     0.1    -0.2     0.0    -0.1    -0.2     0.0     0.0     0.2     0.1    -0.0
    -0.1    -0.3    -0.0    -0.1     0.0     0.3     0.2     0.2     0.2    -0.1
    -0.3    -0.3    -0.3    -0.1     0.1     0.2     0.3     0.1     0.1     0.1
    -0.0    -0.0     0.1    -0.0    -0.1    -0.1    -0.2    -0.0     0.1     0.0
     0.1     0.2     0.2     0.1    -0.0    -0.1    -0.1    -0.0    -0.1    -0.1
     0.0     0.0     0.0     0.1    -0.0    -0.1     0.1     0.2     0.1     0.1
     0.1    -0.1    -0.1    -0.3    -0.8     0.2     0.8     0.3     0.3    -0.2
    -0.3    -0.1     0.0     0.0    -0.4    -0.5     0.1     0.4     0.3     0.3
     0.2     0.0    -0.0    -0.3    -0.3    -0.0     0.0    -0.0     0.1     0.1
    -0.1     0.0     0.1    -0.0     0.0     0.0     0.1     0.1    -0.1    -0.0
    -0.0    -0.1     0.0     0.1     0.1     0.2    -0.0    -0.2    -0.1     0.0
     0.1    -0.0    -0.0     0.1     0.1     0.2    -0.2    -0.7     0.2     1.0
     0.1    -0.2    -0.1    -0.6    -0.2     0.2     0.0     0.1     0.3     0.2
    -0.3    -0.4    -0.1     0.1     0.2     0.1     0.1    -0.0    -0.2    -0.2
     0.0     0.1     0.1     0.0    -0.0     0.0     0.1     0.1     0.2     0.0
    -0.2    -0.3    -0.2     0.1     0.2     0.1    -0.0    -0.0    -0.1     0.0
     0.1    -0.0    -0.1    -0.1    -0.0     0.1     0.1     0.1     0.1    -0.0
     0.0     0.0    -0.0     0.0    -0.0    -0.1    -0.0    -0.0     0.0     0.0
    -0.0    -0.0     0.1     0.1     0.0     0.0    -0.0    -0.1    -0.0    -0.0
    -0.1    -0.1     0.0     0.1     0.1     0.1    -0.0    -0.0    -0.1    -0.1
    -0.1    -0.0     0.1     0.1     0.1     0.1     0.0    -0.1    -0.0     0.1
     0.0    -0.2     0.0     0.0    -0.1     0.2     0.0    -0.1     0.1     0.1
    -0.1    -0.2     0.0     0.0    -0.0     0.2     0.0    -0.1     0.0     0.0
     0.1     0.0    -0.0    -0.0     0.0     0.1    -0.0    -0.1    -0.0     0.1
     0.1    -0.0    -0.0    -0.1    -0.1    -0.0     0.0     0.0     0.0     0.0
     0.0     0.1    -0.0     0.0     0.0    -0.0     0.1    -0.1    -0.1     0.0
     0.0     0.1    -0.0     0.0     0.0    -0.0     0.1    -0.1    -0.1     0.0
     0.1     0.0    -0.2    -0.1    -0.0    -0.0     0.2     0.1     0.0     0.1
     0.1     0.0    -0.1    -0.2    -0.1    -0.1     0.1     0.1     0.1     0.1
     0.0    -0.0    -0.1    -0.1    -0.0    -0.1     0.1     0.1     0.0     0.0
     0.0     0.0     0.0    -0.1    -0.0    -0.1    -0.0     0.0    -0.0     0.0
     0.1     0.0     0.0     0.0    -0.0    -0.1    -0.0    -0.0    -0.0     0.1
     0.0     0.0     0.1     0.1    -0.0    -0.0    -0.1    -0.1     0.0    -0.0
    -0.0     0.0     0.0     0.1     0.0    -0.1    -0.0     0.0     0.0    -0.0
    -0.1     0.0     0.0     0.1     0.0    -0.1     0.0    -0.0     0.1     0.0
