Uncorrected accelerogram 20161122_001942_PWES_20 GNS Science
Site PWES      41 07 39S  174 49 33E     Basalt file:  20161122_002037_PWES
Porirua West
Instrument Basalt_1674
Resolution: 24-bit   Instr Period: 0.0050 s   Damping: 0.700
Accelerogram 20161122_001942_PWES_20                 Processed 2016 November 22
66 km south-east of Porangahau
2016 November 22         00:19:42 UT
Epicentre  40 40 25S 177 13 44E  Bearing N77E  Dist  209km  Depth   29km M  5.55
Number of points  28400    Duration 142.00 s
Raw readings in units of 1.00 mm/s/s  at intervals of 0.005 s
Data is unfiltered
Component S48E
Acceleration:  Peak      3.7 mm/s/s at  42.92 s     RMS     0.50 mm/s/s
Velocity record unevaluated
Displacement record unevaluated
    2016      11      22       0      19     420       0       0    2016      11
      40      40      25     177      13      44      29       0      22       0
      41       7      39     174      49      33     132     132      77     209
   28400       0       0   28400       0       0       0       0      19   57000
   200.0    0.70    0.00   0.000  0.0000   0.000   0.000   1.000     0.0    0.00
  41.127 174.826  40.674 177.229    5.55    0.00    0.00    0.00      0.      0.
  142.00    0.00    0.00  142.00  0.0050  0.0050      0.      0.      0.  9806.6
     3.7   42.92     0.5      0.      0.     0.0    0.00     0.0     0.0   0.000
    0.00    0.00    0.00    0.00   0.000    0.00    0.00    0.00    0.00   0.000
   0.000   0.000   0.000      0.      0.   0.000   0.000   0.000      0.      0.
    -0.0    -0.0     0.0    -0.0     0.0    -0.0    -0.0     0.0     0.0     0.0
    -0.0     0.0    -0.0    -0.0     0.0    -0.0     0.0    -0.0     0.0     0.0
    -0.0     0.0    -0.0     0.0    -0.0    -0.0     0.0    -0.0    -0.0     0.0
     0.0    -0.0     0.0     0.0     0.0    -0.0    -0.0     0.0    -0.0     0.0
    -0.0     0.0     0.0    -0.0    -0.0     0.0    -0.0    -0.0     0.0     0.0
    -0.0     0.0    -0.0     0.0    -0.0    -0.0     0.0    -0.0     0.0    -0.0
     0.0     0.0    -0.0     0.0    -0.0     0.0    -0.0    -0.0     0.0    -0.0
    -0.0     0.0     0.0     0.0     0.0    -0.0    -0.0    -0.0    -0.0    -0.0
    -0.0     0.0    -0.0    -0.0    -0.0    -0.0     0.0     0.0    -0.0     0.0
     0.0     0.0    -0.0    -0.0    -0.0     0.0    -0.0     0.0     0.0    -0.0
     0.0    -0.0    -0.0     0.0    -0.0     0.0     0.0    -0.0     0.0     0.0
     0.0     0.0    -0.0     0.0    -0.0    -0.0     0.0    -0.0    -0.0    -0.0
    -0.0     0.0    -0.0     0.0     0.0     0.0     0.0     0.0     0.0    -0.0
     0.0     0.0    -0.0     0.0    -0.0     0.0    -0.0     0.0    -0.0    -0.0
     0.0    -0.0     0.0    -0.0    -0.0    -0.0    -0.0    -0.0    -0.0     0.0
     0.0    -0.0    -0.0    -0.0     0.0     0.0     0.0    -0.0    -0.0    -0.0
     0.0     0.0    -0.0     0.0    -0.0     0.0     0.0    -0.0     0.0     0.0
    -0.0    -0.0     0.0     0.0    -0.0     0.0    -0.0     0.0     0.0    -0.0
     0.0    -0.0    -0.0     0.0     0.0     0.0    -0.0    -0.0    -0.0     0.0
    -0.0    -0.0     0.0     0.0    -0.1     0.0     0.0    -0.0     0.0    -0.0
    -0.0    -0.0    -0.0     0.0    -0.1     0.1    -0.0    -0.0     0.1    -0.1
     0.1    -0.0    -0.0     0.0    -0.1     0.1    -0.0    -0.0    -0.0     0.0
    -0.0    -0.0     0.1    -0.1     0.0     0.0    -0.0     0.0    -0.0     0.0
    -0.1     0.0     0.0    -0.1     0.0    -0.0     0.0    -0.0    -0.0     0.0
    -0.0     0.0     0.0    -0.0     0.0     0.0    -0.0    -0.0     0.0     0.0
    -0.0     0.0    -0.0     0.0     0.0    -0.0    -0.0    -0.0    -0.0     0.0
    -0.0    -0.0     0.0    -0.0    -0.0    -0.0    -0.0     0.0    -0.0    -0.0
    -0.0     0.0    -0.0    -0.0     0.0    -0.0     0.0    -0.0    -0.0    -0.0
    -0.0     0.0    -0.0     0.0    -0.0     0.0    -0.0    -0.0     0.1    -0.0
     0.0    -0.0    -0.0     0.0    -0.0     0.0    -0.0    -0.0     0.0    -0.0
     0.0    -0.0    -0.0     0.0    -0.0     0.0    -0.0    -0.1     0.0     0.0
    -0.0     0.0    -0.0     0.0     0.0    -0.0    -0.0     0.0     0.0    -0.0
    -0.0     0.0     0.0    -0.0     0.0     0.0    -0.0    -0.0     0.0     0.0
    -0.0    -0.0    -0.0     0.0     0.0    -0.0    -0.0     0.0     0.0    -0.0
     0.0     0.0    -0.0     0.0    -0.0    -0.0    -0.0     0.0    -0.0     0.0
     0.0    -0.0     0.0    -0.0     0.0     0.0    -0.0     0.0     0.0    -0.0
    -0.0     0.0     0.0     0.0    -0.0    -0.0     0.0    -0.0    -0.0     0.0
     0.0    -0.0    -0.0     0.0     0.0     0.0    -0.0    -0.0    -0.0    -0.0
     0.0    -0.0    -0.0    -0.0     0.0    -0.0    -0.0     0.0    -0.0    -0.0
    -0.0     0.0    -0.0    -0.0    -0.0     0.0     0.0    -0.0     0.0     0.0
    -0.0    -0.0     0.0     0.0    -0.0     0.0    -0.0    -0.0     0.0    -0.0
     0.0     0.0    -0.0     0.0    -0.0    -0.0     0.1    -0.0    -0.0     0.0
    -0.0     0.0    -0.0    -0.0     0.0    -0.0    -0.0     0.0    -0.0     0.0
    -0.0    -0.0     0.0    -0.0    -0.0    -0.0    -0.0    -0.0    -0.0    -0.0
     0.0     0.1    -0.0    -0.0     0.0    -0.1    -0.0     0.0    -0.0     0.0
    -0.0    -0.0     0.0    -0.0    -0.0    -0.0    -0.0     0.0    -0.0    -0.0
    -0.0    -0.0     0.0    -0.0     0.0    -0.0     0.0    -0.0     0.0     0.0
    -0.0     0.0    -0.0    -0.0     0.0    -0.0    -0.0    -0.0     0.0    -0.0
    -0.0     0.0    -0.0     0.0    -0.1     0.0     0.0    -0.0     0.0    -0.1
     0.0     0.0    -0.0    -0.0    -0.0    -0.0    -0.0    -0.0    -0.0     0.0
    -0.0    -0.0     0.0    -0.0     0.0    -0.0     0.0    -0.0    -0.0     0.0
    -0.0     0.0    -0.0    -0.0     0.0     0.0     0.0    -0.0     0.0     0.0
    -0.0     0.0    -0.0     0.0     0.0    -0.0     0.0    -0.0    -0.0     0.0
    -0.0     0.0     0.0    -0.0    -0.0    -0.0    -0.0     0.0    -0.0    -0.0
     0.0     0.0     0.0    -0.0     0.0     0.0    -0.0     0.0    -0.0    -0.0
     0.0     0.0    -0.0    -0.0     0.0    -0.0    -0.0     0.0    -0.0     0.0
    -0.0     0.1     0.0    -0.0     0.0    -0.0    -0.0     0.0     0.0    -0.0
     0.0    -0.0    -0.0     0.0    -0.0     0.0    -0.0     0.0     0.0    -0.1
     0.0     0.0     0.0     0.0    -0.0    -0.0     0.0    -0.0    -0.0     0.0
    -0.0     0.0    -0.0     0.0     0.0    -0.0     0.0    -0.0     0.0     0.0
    -0.0     0.0     0.0     0.0    -0.0    -0.0     0.0     0.0    -0.0     0.0
    -0.0    -0.0     0.0    -0.0     0.0    -0.0    -0.0     0.0    -0.0     0.0
    -0.0    -0.0     0.0    -0.0    -0.0    -0.0    -0.0     0.0    -0.0     0.0
     0.0     0.0    -0.0     0.0    -0.0     0.0     0.0    -0.1     0.1     0.0
    -0.1     0.0    -0.0    -0.0     0.0    -0.1    -0.0     0.0    -0.0     0.0
    -0.0     0.0     0.0    -0.0     0.0     0.0    -0.0     0.0    -0.0     0.0
     0.0    -0.0    -0.0    -0.0     0.0    -0.0     0.0     0.0     0.0     0.0
    -0.0     0.0     0.0    -0.0    -0.0    -0.0     0.0    -0.0     0.0    -0.0
    -0.0     0.0    -0.0     0.0     0.0     0.0     0.0    -0.0     0.0    -0.0
    -0.0     0.0     0.0     0.0    -0.0    -0.0     0.0     0.0    -0.0     0.0
     0.0    -0.0     0.0    -0.0    -0.0     0.0     0.0    -0.0    -0.0     0.0
    -0.0     0.0     0.0    -0.0     0.0    -0.0    -0.0     0.0     0.0     0.0
    -0.0     0.0     0.0    -0.0    -0.0     0.0     0.0    -0.0    -0.0     0.0
    -0.0     0.0     0.0    -0.0     0.0    -0.0    -0.0     0.0    -0.0     0.0
    -0.0    -0.1     0.0    -0.0    -0.0     0.0     0.0    -0.0     0.0    -0.0
    -0.0     0.0    -0.0     0.0    -0.0    -0.0     0.0    -0.0    -0.0     0.0
    -0.0     0.0    -0.0     0.0     0.0    -0.0     0.0     0.0    -0.0     0.0
     0.0     0.0    -0.0    -0.0    -0.0    -0.0     0.0     0.0    -0.0     0.0
     0.0     0.0     0.0    -0.0     0.0     0.0    -0.0     0.0     0.0     0.0
    -0.0     0.0     0.1    -0.0    -0.0     0.0    -0.0    -0.0    -0.0     0.0
    -0.0     0.0     0.0    -0.0     0.0    -0.0    -0.0     0.0    -0.0    -0.0
     0.0    -0.0     0.0     0.0    -0.0    -0.0    -0.0     0.0    -0.0     0.0
     0.0    -0.0     0.0     0.0    -0.0     0.0    -0.0    -0.0     0.0    -0.0
     0.0     0.0     0.0     0.0     0.0    -0.0     0.0     0.0    -0.0     0.0
    -0.0     0.0     0.0    -0.1    -0.0    -0.0     0.0    -0.0    -0.0     0.0
     0.0     0.0    -0.0    -0.0     0.0     0.0    -0.0     0.0    -0.0    -0.0
    -0.0     0.0     0.0    -0.0     0.0    -0.0     0.0    -0.0    -0.0     0.1
    -0.1     0.0     0.0    -0.1     0.1    -0.1     0.0    -0.0    -0.0     0.1
    -0.1     0.0    -0.0     0.0    -0.0    -0.0     0.0     0.0     0.0    -0.0
     0.0     0.0    -0.0     0.0    -0.0     0.0     0.0    -0.0     0.0     0.0
     0.0    -0.0    -0.0    -0.0     0.0     0.0    -0.0     0.0     0.0    -0.0
     0.0    -0.0    -0.0     0.0    -0.0    -0.0     0.0     0.0    -0.0     0.0
     0.0    -0.0     0.0    -0.0     0.0     0.0    -0.0    -0.0     0.0     0.0
    -0.0     0.0     0.0    -0.0    -0.0    -0.0     0.0    -0.0    -0.0    -0.0
    -0.0     0.0    -0.0    -0.0     0.0     0.0    -0.0     0.0    -0.0    -0.0
     0.1    -0.1     0.0     0.0    -0.0     0.0    -0.0     0.0    -0.0    -0.1
     0.0    -0.0    -0.0     0.0     0.0    -0.0     0.0    -0.0    -0.0     0.0
    -0.0     0.0     0.0    -0.1     0.0    -0.0    -0.0     0.1    -0.1     0.0
     0.0    -0.0     0.0    -0.0     0.0     0.0    -0.0    -0.0     0.0     0.0
    -0.0    -0.0     0.0    -0.0     0.0     0.0     0.0     0.0    -0.0    -0.0
    -0.0     0.0     0.0    -0.0     0.0     0.0    -0.0     0.0    -0.0    -0.0
     0.0     0.0     0.0     0.0     0.0     0.0    -0.0    -0.0     0.0    -0.0
     0.0     0.0    -0.0     0.0     0.0    -0.1    -0.0     0.0     0.0     0.0
    -0.0     0.0     0.0    -0.0    -0.0    -0.0     0.0     0.0    -0.0     0.0
     0.0     0.0     0.0    -0.0     0.0    -0.0    -0.0     0.0    -0.0     0.0
     0.0    -0.0    -0.0    -0.0    -0.0    -0.0     0.0     0.0    -0.0     0.0
    -0.0    -0.0    -0.0    -0.0     0.0     0.0    -0.0     0.0     0.0    -0.0
    -0.0    -0.0     0.0     0.0    -0.0    -0.0     0.0     0.0     0.0     0.0
    -0.0     0.0     0.0    -0.0    -0.0     0.0    -0.0    -0.0     0.0    -0.0
     0.0    -0.0     0.0     0.0    -0.0     0.0    -0.0    -0.0     0.0    -0.0
    -0.1     0.0     0.1    -0.0    -0.0    -0.0     0.0     0.0    -0.0     0.0
    -0.0    -0.0    -0.0    -0.0     0.0     0.0    -0.0    -0.0     0.0     0.0
    -0.0     0.0     0.0    -0.0    -0.0    -0.0     0.0     0.0    -0.0     0.0
     0.0    -0.0    -0.0    -0.0     0.0     0.0    -0.1    -0.0     0.0    -0.0
    -0.0     0.0    -0.0    -0.0     0.1    -0.0    -0.0     0.0    -0.0     0.0
     0.0    -0.0    -0.0    -0.0     0.0     0.0     0.0    -0.0    -0.0     0.1
    -0.0    -0.0     0.0    -0.0     0.0     0.0    -0.0     0.0     0.0    -0.0
     0.0    -0.0    -0.0    -0.0    -0.0     0.0    -0.0    -0.0     0.0     0.0
     0.0    -0.0     0.0     0.0    -0.0     0.0    -0.0    -0.0     0.0    -0.0
     0.0     0.0    -0.0     0.0     0.0    -0.0     0.0     0.0    -0.0    -0.0
     0.0    -0.0     0.0    -0.0    -0.0     0.0    -0.0    -0.0     0.0    -0.0
    -0.0     0.0    -0.0     0.0    -0.0    -0.1     0.1    -0.0    -0.0     0.0
    -0.1     0.0     0.0    -0.0     0.0     0.0     0.0    -0.1     0.0     0.0
     0.0    -0.0    -0.0     0.1    -0.0     0.0     0.0    -0.0    -0.0    -0.0
    -0.0    -0.0     0.0    -0.0    -0.0     0.0    -0.0     0.0    -0.0    -0.0
     0.0    -0.1    -0.0     0.0     0.0     0.0    -0.0     0.0     0.0    -0.0
     0.0    -0.0     0.0     0.0    -0.0    -0.0    -0.0     0.0    -0.0    -0.0
     0.0    -0.0    -0.0     0.0    -0.0     0.0     0.0    -0.1     0.0     0.0
    -0.0    -0.0    -0.0     0.0    -0.0    -0.0     0.0     0.0    -0.0    -0.0
    -0.0     0.0    -0.0    -0.0     0.0     0.0    -0.0    -0.0    -0.0    -0.0
     0.0    -0.0     0.0     0.0    -0.0     0.0    -0.0     0.0     0.0    -0.0
     0.0     0.0     0.0    -0.0    -0.0     0.0    -0.0    -0.0    -0.0    -0.0
     0.0    -0.0    -0.0     0.0    -0.0    -0.0    -0.0    -0.0     0.0    -0.0
    -0.0    -0.0     0.0    -0.0    -0.0     0.0     0.0    -0.0     0.0     0.0
    -0.0     0.0     0.0    -0.0     0.0    -0.0    -0.1     0.0    -0.0     0.0
     0.0    -0.0     0.0    -0.0    -0.0     0.0    -0.0     0.0    -0.0     0.0
    -0.0     0.0     0.0    -0.0     0.0    -0.0     0.0     0.0    -0.0    -0.0
    -0.0     0.0    -0.0    -0.0    -0.0    -0.0    -0.0    -0.0    -0.0    -0.0
    -0.0    -0.0    -0.0     0.0    -0.0    -0.0     0.0    -0.0    -0.0    -0.0
    -0.0    -0.0    -0.0     0.0    -0.0     0.0    -0.0    -0.0    -0.0     0.0
     0.0    -0.0    -0.0    -0.0     0.1    -0.0     0.0    -0.0    -0.0     0.0
    -0.1     0.0     0.0    -0.0     0.0    -0.0     0.0    -0.0    -0.0    -0.0
    -0.0    -0.0     0.0     0.0     0.0    -0.0    -0.0     0.0    -0.0     0.0
    -0.0     0.0     0.0    -0.0    -0.0    -0.0     0.0     0.0    -0.0    -0.0
     0.0    -0.0    -0.0    -0.0     0.0     0.0    -0.0    -0.0     0.0    -0.0
    -0.0     0.0     0.0    -0.0     0.0    -0.0     0.0     0.0    -0.0     0.0
    -0.0    -0.0    -0.0    -0.0     0.0    -0.0     0.0    -0.0    -0.0     0.0
    -0.0    -0.0     0.0     0.0    -0.0     0.0    -0.0     0.0     0.0     0.0
     0.0    -0.0     0.0    -0.0     0.0     0.1    -0.0    -0.0    -0.0    -0.0
     0.0    -0.0    -0.0    -0.0     0.0     0.1    -0.1    -0.0     0.0    -0.0
     0.0    -0.0    -0.0     0.0    -0.0     0.0    -0.0    -0.0     0.0    -0.0
     0.0    -0.0    -0.1     0.0     0.0    -0.0     0.0    -0.0     0.0     0.0
    -0.1     0.0    -0.0    -0.0     0.0    -0.0    -0.0    -0.0     0.0     0.0
    -0.0     0.0     0.0     0.0    -0.0     0.0     0.0    -0.0    -0.0     0.0
    -0.0    -0.0     0.0     0.0     0.0    -0.0    -0.1     0.0     0.0    -0.0
    -0.0     0.0     0.0     0.0    -0.0    -0.0     0.0     0.0    -0.1     0.0
     0.0    -0.0    -0.0    -0.0     0.0     0.0    -0.0     0.0    -0.0     0.0
    -0.0     0.0     0.1    -0.0     0.0     0.0     0.0     0.0    -0.1    -0.0
     0.1    -0.0    -0.0     0.0     0.0     0.0    -0.0    -0.0     0.0    -0.0
     0.0    -0.0     0.0     0.0    -0.0     0.0    -0.0     0.0    -0.0    -0.0
     0.0     0.0     0.0     0.0    -0.0    -0.0     0.0    -0.0     0.0     0.0
    -0.0     0.0    -0.0     0.0    -0.0    -0.0     0.0     0.0    -0.0    -0.0
    -0.0     0.0     0.0    -0.0    -0.0     0.0     0.0    -0.0    -0.0    -0.0
     0.0    -0.0    -0.0     0.0     0.0    -0.0    -0.0    -0.0    -0.0     0.0
    -0.0     0.0    -0.0     0.0     0.1    -0.1     0.1    -0.2    -0.1     0.2
     0.3     0.1    -0.6     0.1     0.3    -0.3     0.0     0.0     0.2    -0.1
    -0.2     0.1    -0.1     0.0     0.1    -0.1    -0.0     0.0     0.0    -0.0
    -0.1     0.1     0.1    -0.1    -0.1     0.1     0.1    -0.0    -0.1     0.0
     0.0    -0.0    -0.0    -0.0     0.1     0.0     0.0    -0.1    -0.0    -0.0
    -0.0     0.2    -0.0    -0.1    -0.0    -0.0     0.0     0.1    -0.0    -0.1
     0.1     0.0     0.0    -0.1    -0.0     0.1    -0.0     0.0     0.0    -0.0
    -0.0     0.0     0.0    -0.0     0.0     0.0    -0.0    -0.0    -0.0     0.0
    -0.0    -0.0     0.0     0.0     0.0    -0.0    -0.0     0.0     0.0     0.0
     0.0     0.0    -0.0     0.0    -0.0    -0.0     0.1    -0.0    -0.0     0.0
    -0.0     0.0    -0.0    -0.0     0.0    -0.0    -0.0    -0.0    -0.0     0.0
     0.0     0.0    -0.0     0.0     0.0    -0.0     0.0    -0.0     0.0    -0.0
    -0.0     0.0    -0.1     0.0     0.0    -0.0     0.0    -0.0     0.0    -0.0
    -0.0     0.0    -0.0     0.0    -0.0    -0.0     0.0    -0.0    -0.0    -0.0
     0.0    -0.0    -0.0     0.0    -0.0    -0.0     0.0     0.0    -0.0    -0.0
    -0.0     0.0    -0.0    -0.0    -0.0    -0.0    -0.0    -0.0     0.0    -0.0
    -0.0     0.0     0.0     0.0    -0.0     0.0    -0.0    -0.0     0.0    -0.0
     0.0     0.0    -0.0     0.0    -0.0     0.0     0.0    -0.0    -0.0     0.0
    -0.0    -0.0     0.0     0.0     0.0     0.0    -0.0     0.0    -0.0     0.0
    -0.0    -0.0     0.0    -0.0    -0.0     0.0     0.0     0.0     0.0    -0.0
    -0.0     0.0    -0.0     0.0     0.0     0.0     0.0    -0.0     0.0    -0.0
     0.0     0.0    -0.0     0.0    -0.0     0.0    -0.0     0.0     0.0    -0.0
    -0.0    -0.0     0.0    -0.0    -0.0     0.1    -0.0    -0.0     0.0    -0.0
     0.0    -0.0    -0.0     0.0    -0.0    -0.0     0.0     0.0     0.0     0.0
    -0.0     0.0     0.0    -0.0     0.0    -0.0     0.0    -0.0    -0.0     0.0
    -0.0     0.0     0.0    -0.0     0.0     0.0    -0.0     0.0    -0.0    -0.0
     0.0    -0.0     0.0     0.0    -0.0    -0.0    -0.0     0.0    -0.0    -0.0
     0.0    -0.0    -0.1    -0.0     0.0     0.0    -0.0    -0.0     0.0    -0.0
     0.0    -0.0     0.0     0.1    -0.1     0.0     0.0    -0.0     0.0    -0.0
    -0.0     0.0     0.0    -0.0    -0.0     0.0     0.0    -0.0     0.0     0.0
    -0.0     0.0    -0.0     0.0    -0.0    -0.0     0.0    -0.0     0.0     0.0
    -0.0    -0.0    -0.0     0.0    -0.0     0.0     0.0    -0.0    -0.0    -0.0
     0.0     0.0    -0.0     0.0    -0.0     0.0    -0.0    -0.0     0.0     0.0
     0.0     0.0    -0.0    -0.0     0.0    -0.0    -0.0     0.0     0.0    -0.0
    -0.0     0.0     0.0    -0.0    -0.0    -0.0     0.0    -0.0     0.0     0.0
    -0.0    -0.0    -0.0    -0.0    -0.0     0.0    -0.0    -0.0     0.0    -0.0
     0.0    -0.0    -0.0     0.0    -0.0     0.1    -0.0    -0.0     0.0    -0.0
     0.0    -0.0    -0.0     0.0    -0.1     0.0     0.0    -0.0    -0.0    -0.0
    -0.0    -0.0     0.0    -0.0     0.0    -0.0    -0.0    -0.0    -0.0    -0.0
    -0.0     0.0    -0.0    -0.0     0.1    -0.0    -0.0    -0.0     0.0     0.1
    -0.0    -0.0     0.0     0.0    -0.0     0.0     0.0    -0.0     0.0    -0.0
    -0.0     0.0    -0.0    -0.0    -0.0     0.0     0.0    -0.1     0.0    -0.0
     0.0     0.0    -0.0     0.1    -0.0    -0.0     0.0     0.0    -0.0    -0.0
     0.0     0.0    -0.0    -0.0    -0.0     0.0     0.0    -0.0    -0.0     0.0
    -0.0     0.0     0.0    -0.0     0.0     0.0     0.0     0.0    -0.0    -0.0
     0.0    -0.0    -0.0     0.0    -0.0     0.0     0.0    -0.0     0.0    -0.0
     0.0     0.0    -0.0     0.0    -0.0     0.0    -0.0    -0.0    -0.0    -0.0
     0.1    -0.0     0.0     0.0    -0.1     0.0    -0.0     0.1    -0.0    -0.0
     0.0    -0.0     0.0    -0.0    -0.0     0.1    -0.0    -0.0     0.0    -0.0
    -0.1     0.0    -0.0    -0.0     0.0    -0.0     0.0    -0.0     0.0     0.0
    -0.0     0.0    -0.0    -0.0    -0.0     0.0    -0.0    -0.0     0.0     0.0
    -0.0    -0.0    -0.1     0.0     0.0    -0.0     0.0    -0.1     0.0     0.0
     0.0     0.0    -0.0     0.0    -0.1     0.0     0.1    -0.1    -0.0     0.0
    -0.0     0.0    -0.0     0.0     0.0     0.0     0.0     0.0    -0.0    -0.0
     0.1     0.0     0.0    -0.0    -0.0    -0.0     0.0     0.0    -0.1    -0.0
     0.0    -0.0     0.0    -0.0    -0.0     0.0    -0.0    -0.0    -0.0    -0.0
     0.0    -0.0    -0.0     0.0     0.0    -0.0    -0.0     0.0    -0.0     0.0
    -0.0    -0.0     0.0    -0.0     0.0     0.0     0.0     0.0    -0.0     0.0
    -0.0    -0.0     0.0    -0.0     0.0    -0.0     0.0     0.0    -0.1     0.1
    -0.0    -0.0     0.0    -0.0     0.0    -0.0     0.0     0.0     0.0    -0.0
    -0.0     0.0    -0.0     0.0    -0.0    -0.0     0.0    -0.0     0.0    -0.0
    -0.0     0.0    -0.0    -0.0    -0.0    -0.0     0.0     0.0     0.0     0.0
    -0.1     0.0     0.0    -0.1     0.0     0.0     0.0    -0.0    -0.0    -0.0
