CORRECTED ACCELEROGRAM   24207-C0157-94019.02       CHAN  9: RAD         FROM   
UNCORRECTED ACCELEROGRAM DATA              PROCESSED: 06/16/94, CDMG QN94207A   
NORTHRIDGE EARTHQUAKE                                                           
JANUARY 17, 1994 04:31 PST              (ORIGIN(CIT): 01/17/94, 12:30:55.4 GMT) 
24207-C0157-94019.02                                                            
STATION NO. 24207   34.334N, 118.396W     CRA-1  S/N 0157 (11 CHNS OF 20 AT STA)
PACOIMA RESERVOIR - PACOIMA DAM                                                 
CHAN  9: RAD      (STA CHN:  9)     LOCATION: DAM BASE                          
NORTHRIDGE EARTHQUAKE     JANUARY 17, 1994 04:31 PST                            
HYPOCENTER(CIT): 34.215N, 118.538W, H=18KM. ML=6.6, MW=6.7(CIT); MS=6.7(NEIC)   
INSTR PERIOD =  .0195 SEC,  DAMPING =  .670,  SENSITIVITY = 1.83 CM/G.          
                        RECORD LENGTH = 11.000 SEC.                             
                                     UNCOR MAX  =   .471 G, AT   3.964 SEC.     
RMS ACCEL OF (UNCOR) RECORD  =  .058 G.                                         
ACCELEROGRAM BANDPASS FILTERED WITH RAMPS AT  .080- .160 AND 23.00-25.00 CYC/SEC
   551 POINTS OF INSTRUMENT- AND BASELINE-CORRECTED ACCEL, VELOC AND DISPL DATA 
AT EQUALLY-SPACED INTERVALS OF    .020  SEC.                                    
PEAK ACCELERATION =   429.355    CM/SEC/SEC  AT    3.960   SEC.                 
PEAK   VELOCITY   =    31.525      CM/SEC    AT    4.020   SEC.                 
PEAK DISPLACEMENT =    -4.560        CM      AT    6.620   SEC.                 
INITIAL VELOCITY  =      .140   CM/SEC;   INITIAL DISPLACEMENT =    -.147   CM  
NORTHRIDGE EARTHQUAKE     JANUARY 17, 1994 04:31 PST                            
                                                                                
24207-C0157-94019.02      PACOIMA RESERVOIR - PACOIMA DAM   CHAN  9: RAD        
                                                                                
    9    1    9   11   20    0    1    1    1 2048    0    0    0    0    0    0
    0    0    0    0    0    0    0    0    0    0  700 2227   21   31   52    0
    0    0    0    0    0    0    0    0    0    0    0    0    0    0    0    0
    0    0 2227 2227  551    4   10   10    0    0   52   76   10   10    0  551
    0  551    0    0    0    0    0    0    0    0    0    0    0    0    0    0
    0    0    0    0    0    0    0    0    0    0    0    0    0    0    0    0
    0    0    0    0
      .019      .670    11.000      .058     1.000     1.830      .471     3.964
    51.400    50.000     2.732    50.000     4.939      .115     4.745     5.132
      .000      .000      .000      .000      .000      .000      .000      .000
      .000      .000      .000      .000      .000      .000      .000      .000
      .000      .000      .000      .000      .000      .000      .000      .000
      .000      .000      .000      .000      .000      .000      .000      .000
      .000      .000      .000    98.066      .005    11.000   330.694      .000
      .000    25.000     2.000    11.000      .020      .160      .080      .000
     3.960   429.355     4.020    31.525     6.620    -4.560      .140      .160
    23.000      .020      .020     -.147      .000      .000      .000      .000
      .000      .000      .000      .000      .000      .000      .000      .000
      .000      .000      .000      .000      .000      .000      .000      .000
      .000      .000      .000      .000
  551 POINTS OF ACCEL DATA EQUALLY SPACED AT  .020 SEC.  (UNITS: CM/SEC/SEC)    
      .699     1.873     1.644      .984     1.733     4.392     3.249    -1.289
    -5.297    -9.510    -5.642     1.000     4.972    10.049    11.491    11.614
     8.465    -2.290    -2.865    -7.174   -11.392   -11.087    -8.433     4.631
     5.622     3.466     5.682     7.043     4.899     7.974     8.051     1.673
    -8.575    -9.182    -2.568    -4.169   -19.475   -22.133    -2.494     7.444
    16.544    13.808    11.844    13.213     6.937     2.560    -4.248   -14.866
   -12.260    -7.128    -7.869     1.256     5.704     2.155     2.208     8.807
    11.885    11.297     -.369   -12.571    -5.946      .837     1.498    -3.425
    -5.177      .840     1.544    -2.919    -2.209    -1.115     -.195     4.741
     -.379   -16.086   -19.173    -7.521     1.112     7.687     -.888     1.051
     6.625     5.563     6.414    -4.900   -10.703    -5.890    -3.883   -12.873
   -17.155   -11.866      .557     7.245     5.351     1.421    -7.375     -.628
     4.821     5.404    -3.491   -13.895     5.102    13.189     4.092    -8.624
   -18.558   -10.519    -3.844     2.127     8.229     4.410     7.754     4.908
    -2.357    -6.911   -15.761   -10.753    -7.569   -13.682    -6.655     1.961
     5.396    13.189     5.005     4.648     1.731   -11.923    -5.157    -2.722
    -2.967     -.303    -7.967    -6.536    -9.527    -3.407     4.113    -1.606
      .874     -.671     4.131     7.573     6.983    12.167    10.333     2.604
    -4.913    -4.970     5.128     3.636     6.913      .284    -8.367    -5.925
    -7.036   -11.559   -19.761   -21.629   -21.805   -19.365   -15.366   -17.496
    -9.299    -2.486    -7.178   -15.723   -19.009   -13.752    -4.873    32.630
    62.926    66.617    64.826    65.517    63.808    61.744    59.331    58.758
    61.115    65.762    76.829    77.079    38.015     7.225   -59.602  -156.537
  -241.676  -213.505  -190.495  -114.742   -24.591    37.243    45.618    24.268
    34.110    83.786   131.309   199.325   254.164   267.784   429.355   324.530
   184.387    23.035   -73.720  -184.466  -316.568  -326.600  -279.944  -116.661
   -16.581    18.481   100.669    12.791    26.892   -49.623  -111.395   -96.576
  -117.556   -75.770  -116.776   -74.430   -39.074    44.436    -4.312    63.231
    66.807    45.932    69.165    46.143    20.727   -27.946    -4.196   -30.850
   -32.825   -11.048    11.092     6.999     6.601     9.559   -33.064   -56.470
   -35.241    -1.737    23.077    30.652    26.524    19.042    11.179    -9.951
    -3.441     6.306     7.039   -12.794   -40.481   -45.889   -30.835   -29.386
   -45.000   -58.548   -63.501   -57.005   -42.676   -31.052   -25.416   -27.674
   -24.077      .324    26.234    36.556    38.093    38.073    40.394    45.898
    42.355    36.465    42.327    52.027    60.271    65.153    63.648    48.455
    18.212   -11.652   -21.167    -5.606     2.765     9.487    16.792     5.080
    -9.998   -16.799   -12.637   -20.461   -35.018   -43.285   -58.210   -68.305
   -57.387   -35.874   -31.608   -22.553   -14.154    -6.065     9.062    20.526
    23.163    15.068    -2.457   -23.631   -29.666   -26.642   -18.710   -13.409
   -18.428   -19.328   -13.183   -19.393   -19.594   -29.843   -32.195   -23.627
   -18.462    -8.460     2.476    28.236    54.050    75.492    80.800    74.581
    71.836    66.364    60.173    55.161    48.829    46.497    44.966    51.055
    68.136    95.577   121.498   128.958   120.700   102.270    89.968    72.536
    60.414    48.169    20.150     7.461     7.119    -8.774   -52.678  -106.725
  -144.010  -175.197  -195.126  -208.636  -205.152  -172.754  -139.042   -76.207
   -44.866   -30.808    -7.873     1.153    11.643    18.071    23.737    16.502
     8.712    -1.801   -14.089   -15.092      .654     8.819    15.265    18.023
     5.996      .198    15.116    32.184    50.567    67.067    71.899    81.018
    88.858    61.998     9.749   -18.267   -38.217   -43.992   -24.408    -1.090
    10.518    21.817    27.671    37.188    50.073    46.100    35.331    11.359
   -16.814   -24.027   -11.499     6.982    20.240    15.776     4.328     -.464
    -4.881   -15.547   -12.337    -9.056   -14.572   -14.777   -17.597   -16.294
   -14.489   -19.105   -27.048   -33.526   -26.109   -19.298   -14.007    -5.130
     -.631    -6.270   -14.142    -9.430    -5.722    -3.229      .903     9.415
    11.627    10.841    14.551    11.939    11.933    14.423    14.304     9.654
    -8.737   -26.855   -40.095   -43.304   -39.545   -36.602   -31.811   -24.939
   -19.191   -11.554    -1.468     5.779     9.865     9.075     6.140     -.320
    -5.164    -7.931    -5.553     4.262    13.010    17.620    23.112    27.691
    24.135    17.795     1.537   -11.085   -11.284    -9.256    -4.107    -1.324
    -2.204    -3.328    -1.379     6.023     7.898     5.309     3.571      .259
     2.650    10.250    19.340    26.287    31.058    25.081    10.356     2.829
     2.895     -.683    -4.159    -9.379   -15.488   -13.319    -1.517     9.540
     9.989    10.105    10.988     7.572     4.531     5.723     5.196      .012
    -6.383   -11.599   -15.475   -17.849   -14.958   -14.982   -17.447   -17.285
   -14.344    -6.815    -7.242   -13.870   -18.276   -13.793    -1.273     8.832
    12.371     8.064     1.776    -2.111     1.133     5.153     2.779      .318
      .414     2.296     7.260     6.479     2.643     1.012     -.045     -.052
    -2.192    -1.872     2.682     4.955     4.447     5.899    11.752    14.925
    12.913    11.878     9.254     2.667    -2.727    -3.132    -2.345
